{"type":"FeatureCollection","features":[{"type":"Feature","id":1,"geometry":{"type":"Polygon","coordinates":[[[-9.48222,38.75784],[-9.482,38.75761],[-9.48082,38.76018],[-9.47694,38.76419],[-9.47539,38.76578],[-9.47358,38.76677],[-9.47104,38.76715],[-9.46895,38.76767],[-9.46288,38.76828],[-9.46161,38.76819],[-9.46109,38.76778],[-9.45962,38.76765],[-9.45912,38.76784],[-9.45916,38.76821],[-9.45792,38.76823],[-9.44338,38.76737],[-9.44312,38.7678],[-9.44196,38.76827],[-9.44096,38.769],[-9.44038,38.76881],[-9.44031,38.76863],[-9.43889,38.76824],[-9.4389,38.76701],[-9.42272,38.7659],[-9.42164,38.76446],[-9.42084,38.76197],[-9.41943,38.76046],[-9.41887,38.75897],[-9.41705,38.75825],[-9.41493,38.75814],[-9.4131,38.75854],[-9.4123,38.75971],[-9.4109,38.75879],[-9.41002,38.75846],[-9.40867,38.75861],[-9.40653,38.75788],[-9.40565,38.75652],[-9.40339,38.75728],[-9.40265,38.75583],[-9.40173,38.75449],[-9.40119,38.75413],[-9.40089,38.75423],[-9.4004,38.75344],[-9.39975,38.75296],[-9.39821,38.75369],[-9.39777,38.75368],[-9.39685,38.75439],[-9.39329,38.75537],[-9.39214,38.7559],[-9.39075,38.75605],[-9.39003,38.75591],[-9.3883,38.75638],[-9.38621,38.76255],[-9.38528,38.76682],[-9.38457,38.76809],[-9.38294,38.77018],[-9.38158,38.77225],[-9.37397,38.78601],[-9.3735,38.7869],[-9.37349,38.78746],[-9.37427,38.78848],[-9.37702,38.79018],[-9.37758,38.79072],[-9.38008,38.79081],[-9.38028,38.791],[-9.38033,38.79184],[-9.38015,38.79289],[-9.38039,38.79389],[-9.38044,38.79496],[-9.38231,38.79665],[-9.38427,38.79779],[-9.38543,38.79706],[-9.38815,38.79937],[-9.38973,38.79825],[-9.39052,38.79914],[-9.39195,38.80008],[-9.39456,38.80127],[-9.39498,38.80162],[-9.3956,38.80175],[-9.39646,38.80248],[-9.39869,38.80343],[-9.40023,38.80352],[-9.40451,38.80219],[-9.4057,38.80211],[-9.40866,38.80047],[-9.40995,38.79996],[-9.41082,38.79894],[-9.41229,38.79883],[-9.41356,38.79811],[-9.41683,38.79808],[-9.41891,38.79757],[-9.41937,38.79724],[-9.41996,38.79764],[-9.42141,38.79791],[-9.42186,38.79894],[-9.42215,38.79915],[-9.42246,38.79871],[-9.4231,38.79888],[-9.42391,38.79997],[-9.4243,38.80001],[-9.42518,38.80082],[-9.42531,38.80162],[-9.42646,38.80198],[-9.42766,38.80269],[-9.42795,38.80308],[-9.4289,38.80341],[-9.42986,38.80429],[-9.43011,38.80427],[-9.43063,38.80392],[-9.4312,38.80382],[-9.43198,38.80302],[-9.433,38.80293],[-9.43331,38.80275],[-9.43643,38.80047],[-9.4363,38.79871],[-9.43646,38.79829],[-9.4367,38.79816],[-9.43748,38.79816],[-9.43825,38.79846],[-9.43846,38.79839],[-9.43843,38.79791],[-9.4388,38.79779],[-9.4392,38.79797],[-9.4398,38.79872],[-9.4408,38.79841],[-9.4413,38.79903],[-9.44201,38.79917],[-9.44232,38.79953],[-9.4433,38.8001],[-9.44398,38.8003],[-9.44446,38.80024],[-9.44473,38.80076],[-9.44546,38.80075],[-9.4458,38.80096],[-9.44617,38.80133],[-9.44591,38.80172],[-9.44594,38.80191],[-9.44684,38.80195],[-9.44663,38.8023],[-9.44686,38.80243],[-9.44738,38.80225],[-9.44797,38.80235],[-9.44854,38.80267],[-9.44962,38.80353],[-9.44972,38.80406],[-9.45008,38.80434],[-9.45159,38.80453],[-9.45181,38.80491],[-9.45146,38.80569],[-9.452,38.80621],[-9.45325,38.80624],[-9.45431,38.80667],[-9.45493,38.80733],[-9.45623,38.80737],[-9.45721,38.80803],[-9.45801,38.80901],[-9.45976,38.80976],[-9.45983,38.81042],[-9.46034,38.81101],[-9.46155,38.81196],[-9.46172,38.81271],[-9.46288,38.81344],[-9.46393,38.81388],[-9.46472,38.81378],[-9.46488,38.81414],[-9.46543,38.81432],[-9.46598,38.81483],[-9.4665,38.81506],[-9.46686,38.81544],[-9.46675,38.81569],[-9.46745,38.81718],[-9.46655,38.81861],[-9.46626,38.81941],[-9.46644,38.81992],[-9.46637,38.82023],[-9.46572,38.82126],[-9.4659,38.82212],[-9.4662,38.82252],[-9.46715,38.82303],[-9.46915,38.82346],[-9.47051,38.82399],[-9.47185,38.82513],[-9.47315,38.82452],[-9.47337,38.82415],[-9.47312,38.82201],[-9.47325,38.82132],[-9.47385,38.82066],[-9.47484,38.81898],[-9.4762,38.81747],[-9.47637,38.81635],[-9.47703,38.8156],[-9.4792,38.81199],[-9.48076,38.81006],[-9.4817,38.8094],[-9.48218,38.80942],[-9.48299,38.80903],[-9.48343,38.80869],[-9.48308,38.80835],[-9.48395,38.8081],[-9.48414,38.80794],[-9.48397,38.80779],[-9.48431,38.80768],[-9.48404,38.80761],[-9.48426,38.80747],[-9.48402,38.80744],[-9.48396,38.80714],[-9.48369,38.8069],[-9.48392,38.80677],[-9.48375,38.80649],[-9.48461,38.8053],[-9.48454,38.80244],[-9.48531,38.80243],[-9.48566,38.8028],[-9.48608,38.80286],[-9.48677,38.80117],[-9.48692,38.80124],[-9.48672,38.80179],[-9.48681,38.80196],[-9.48754,38.80211],[-9.48817,38.80145],[-9.48816,38.80102],[-9.48843,38.80114],[-9.48884,38.80105],[-9.48909,38.80072],[-9.48948,38.80064],[-9.48896,38.80054],[-9.48932,38.79994],[-9.48903,38.7996],[-9.48948,38.79931],[-9.48946,38.7989],[-9.48991,38.7986],[-9.48972,38.79835],[-9.48991,38.79805],[-9.48943,38.7967],[-9.49051,38.79623],[-9.49078,38.79591],[-9.48965,38.7955],[-9.4898,38.7951],[-9.49076,38.79548],[-9.49132,38.79549],[-9.49149,38.79525],[-9.49113,38.79485],[-9.49171,38.79451],[-9.49144,38.79423],[-9.4916,38.79417],[-9.49184,38.79439],[-9.49209,38.79438],[-9.49198,38.7941],[-9.4921,38.79393],[-9.49273,38.79421],[-9.49333,38.79426],[-9.49367,38.79391],[-9.4936,38.79353],[-9.4928,38.79313],[-9.49235,38.79315],[-9.49194,38.79273],[-9.49197,38.79253],[-9.49236,38.7926],[-9.49217,38.79239],[-9.4923,38.79228],[-9.49272,38.7922],[-9.49278,38.79239],[-9.4935,38.79267],[-9.49317,38.79176],[-9.49279,38.79173],[-9.4926,38.79151],[-9.49229,38.79162],[-9.49229,38.79034],[-9.4925,38.79005],[-9.49341,38.78967],[-9.49379,38.78912],[-9.49426,38.78889],[-9.49464,38.78838],[-9.49586,38.78792],[-9.49646,38.78814],[-9.49658,38.78804],[-9.49651,38.78771],[-9.49615,38.78761],[-9.49606,38.78729],[-9.49567,38.78696],[-9.4957,38.78588],[-9.49614,38.78532],[-9.49696,38.78501],[-9.49724,38.7839],[-9.49776,38.78342],[-9.49843,38.78322],[-9.49895,38.78254],[-9.49907,38.78213],[-9.49947,38.78173],[-9.49993,38.78158],[-9.50053,38.78072],[-9.50028,38.7796],[-9.49983,38.77871],[-9.49998,38.77844],[-9.49978,38.77843],[-9.49974,38.77817],[-9.49948,38.77816],[-9.49852,38.77753],[-9.49867,38.77732],[-9.49833,38.77706],[-9.49823,38.77654],[-9.49768,38.77687],[-9.49802,38.77734],[-9.49787,38.77743],[-9.49758,38.77702],[-9.49681,38.77666],[-9.49686,38.77627],[-9.49645,38.77571],[-9.49632,38.77589],[-9.49664,38.77661],[-9.49604,38.77602],[-9.4957,38.77634],[-9.49516,38.77608],[-9.49395,38.77611],[-9.49335,38.77553],[-9.49344,38.77498],[-9.49387,38.7747],[-9.49357,38.77454],[-9.49356,38.77434],[-9.49423,38.77398],[-9.49436,38.77407],[-9.49397,38.77429],[-9.49389,38.77454],[-9.49419,38.77449],[-9.49486,38.77374],[-9.49489,38.77343],[-9.49465,38.77361],[-9.49445,38.77334],[-9.49468,38.77303],[-9.49446,38.77285],[-9.49428,38.77182],[-9.49437,38.77142],[-9.49504,38.7708],[-9.49513,38.76959],[-9.49455,38.76928],[-9.49414,38.76927],[-9.49502,38.76895],[-9.49513,38.76869],[-9.49503,38.76843],[-9.49458,38.76854],[-9.49424,38.76839],[-9.49368,38.76859],[-9.49338,38.76849],[-9.49333,38.76817],[-9.49367,38.76824],[-9.49382,38.76795],[-9.49361,38.76787],[-9.49404,38.76757],[-9.49385,38.76755],[-9.49382,38.76736],[-9.49323,38.76764],[-9.49363,38.76714],[-9.49361,38.7669],[-9.49338,38.76699],[-9.49359,38.76665],[-9.49343,38.76652],[-9.49349,38.76628],[-9.49329,38.7662],[-9.49308,38.76637],[-9.49328,38.76691],[-9.49316,38.7673],[-9.49288,38.76655],[-9.49222,38.76607],[-9.49227,38.76566],[-9.49202,38.76604],[-9.4919,38.76584],[-9.49175,38.76607],[-9.49136,38.76586],[-9.49093,38.76598],[-9.49078,38.76485],[-9.49037,38.76493],[-9.49034,38.76467],[-9.49177,38.76388],[-9.4915,38.76359],[-9.49103,38.76385],[-9.49097,38.76358],[-9.49119,38.76339],[-9.49094,38.76324],[-9.4912,38.76299],[-9.49099,38.76299],[-9.49033,38.76345],[-9.49038,38.76289],[-9.49016,38.76273],[-9.49001,38.76219],[-9.48987,38.76231],[-9.48974,38.76214],[-9.48941,38.76217],[-9.48947,38.76186],[-9.48928,38.76178],[-9.4878,38.76242],[-9.48801,38.76189],[-9.48814,38.76187],[-9.48804,38.76161],[-9.4876,38.7614],[-9.4869,38.76164],[-9.48703,38.76139],[-9.48672,38.7616],[-9.4874,38.76053],[-9.48683,38.76088],[-9.48678,38.76078],[-9.48592,38.76181],[-9.48553,38.76167],[-9.48499,38.76172],[-9.48506,38.76152],[-9.48471,38.76158],[-9.48511,38.76113],[-9.48505,38.76069],[-9.4846,38.76047],[-9.48472,38.76016],[-9.4844,38.7604],[-9.4844,38.76019],[-9.48421,38.76014],[-9.485,38.75931],[-9.48461,38.75927],[-9.48454,38.75899],[-9.48498,38.75895],[-9.48463,38.75894],[-9.48457,38.75874],[-9.48396,38.75888],[-9.48419,38.75863],[-9.48416,38.7584],[-9.48445,38.75822],[-9.48438,38.75805],[-9.48411,38.75804],[-9.48397,38.7583],[-9.48342,38.75849],[-9.48348,38.75835],[-9.48332,38.75823],[-9.48387,38.75776],[-9.48378,38.75736],[-9.48344,38.75743],[-9.48332,38.75778],[-9.48309,38.75767],[-9.48275,38.75791],[-9.48222,38.75784]],[[-9.3945,38.79737],[-9.39429,38.79675],[-9.39406,38.79655],[-9.39334,38.79692],[-9.39294,38.79693],[-9.39235,38.79655],[-9.39184,38.79709],[-9.39123,38.79715],[-9.39189,38.79817],[-9.39194,38.79854],[-9.39155,38.79866],[-9.39079,38.79858],[-9.39019,38.79831],[-9.38951,38.79751],[-9.38969,38.79738],[-9.38973,38.79676],[-9.38988,38.79672],[-9.3898,38.79645],[-9.38634,38.79548],[-9.38506,38.79433],[-9.38383,38.79421],[-9.3838,38.79373],[-9.38355,38.79368],[-9.38359,38.79315],[-9.38398,38.79289],[-9.38397,38.79269],[-9.38361,38.79266],[-9.38359,38.79245],[-9.38383,38.7924],[-9.38351,38.79191],[-9.38429,38.79157],[-9.38506,38.79072],[-9.38554,38.79048],[-9.38553,38.79034],[-9.38519,38.79039],[-9.38449,38.79064],[-9.38393,38.79042],[-9.38414,38.7899],[-9.38458,38.78971],[-9.38419,38.78914],[-9.38435,38.78862],[-9.38402,38.78851],[-9.38451,38.7883],[-9.38475,38.78799],[-9.38426,38.78766],[-9.38347,38.78789],[-9.38283,38.78743],[-9.38296,38.7871],[-9.38282,38.78689],[-9.38321,38.78647],[-9.3837,38.78629],[-9.38392,38.78637],[-9.38419,38.78675],[-9.38423,38.78714],[-9.38617,38.78661],[-9.38605,38.78637],[-9.38644,38.78621],[-9.38666,38.78582],[-9.3855,38.78547],[-9.38541,38.78509],[-9.38644,38.78498],[-9.38733,38.78432],[-9.38762,38.78386],[-9.38794,38.78374],[-9.38884,38.78415],[-9.38893,38.78393],[-9.38993,38.78361],[-9.39053,38.78277],[-9.39051,38.78228],[-9.39101,38.78197],[-9.39109,38.78169],[-9.39081,38.78101],[-9.39258,38.78081],[-9.39424,38.78185],[-9.39995,38.78139],[-9.40205,38.77989],[-9.40396,38.77928],[-9.40464,38.77857],[-9.40555,38.77828],[-9.40622,38.77755],[-9.40692,38.77715],[-9.41029,38.77734],[-9.4123,38.777],[-9.41329,38.77735],[-9.4139,38.77726],[-9.41631,38.77624],[-9.41782,38.77594],[-9.41851,38.77625],[-9.41871,38.7765],[-9.41878,38.77759],[-9.41923,38.77809],[-9.41981,38.77841],[-9.4222,38.77845],[-9.423,38.77819],[-9.4263,38.77866],[-9.42882,38.77843],[-9.42932,38.77815],[-9.43064,38.77818],[-9.43137,38.77852],[-9.43243,38.77947],[-9.43419,38.77994],[-9.43501,38.78118],[-9.43526,38.78134],[-9.43591,38.78132],[-9.43657,38.78098],[-9.4371,38.78116],[-9.43742,38.78167],[-9.43775,38.78186],[-9.43939,38.78177],[-9.44009,38.78197],[-9.441,38.78168],[-9.44148,38.78282],[-9.44141,38.78352],[-9.44194,38.78569],[-9.44308,38.78562],[-9.4437,38.78509],[-9.44393,38.78531],[-9.44403,38.7858],[-9.4444,38.78548],[-9.4448,38.78567],[-9.44551,38.78655],[-9.44569,38.78757],[-9.44643,38.78776],[-9.44668,38.78799],[-9.44683,38.78883],[-9.44766,38.79044],[-9.44839,38.79084],[-9.44761,38.79137],[-9.44849,38.79196],[-9.4483,38.79201],[-9.4486,38.79208],[-9.44843,38.79227],[-9.44791,38.792],[-9.44729,38.79229],[-9.44757,38.79281],[-9.44807,38.79321],[-9.44792,38.79442],[-9.44772,38.79479],[-9.44704,38.79501],[-9.44717,38.79604],[-9.44622,38.79656],[-9.44632,38.79678],[-9.44586,38.79702],[-9.44437,38.79701],[-9.44199,38.79549],[-9.44156,38.79596],[-9.44066,38.79528],[-9.43904,38.79446],[-9.4384,38.79463],[-9.43778,38.79424],[-9.43781,38.79351],[-9.43622,38.79249],[-9.43491,38.7928],[-9.43374,38.79329],[-9.43246,38.7934],[-9.43144,38.79311],[-9.43075,38.79269],[-9.42981,38.79362],[-9.42982,38.79434],[-9.42924,38.79469],[-9.42968,38.79659],[-9.42855,38.79738],[-9.42812,38.79887],[-9.42798,38.79893],[-9.42746,38.7985],[-9.42753,38.79832],[-9.42641,38.79782],[-9.42568,38.79829],[-9.42482,38.79762],[-9.42457,38.79767],[-9.42455,38.79738],[-9.42392,38.79642],[-9.42292,38.79637],[-9.42161,38.79568],[-9.42038,38.79537],[-9.41942,38.79577],[-9.4196,38.79646],[-9.41936,38.797],[-9.41702,38.79699],[-9.41619,38.79633],[-9.41617,38.79599],[-9.41555,38.79517],[-9.41408,38.79509],[-9.41375,38.79549],[-9.41332,38.79523],[-9.41316,38.79535],[-9.41268,38.79443],[-9.41214,38.79424],[-9.41068,38.79483],[-9.41024,38.79447],[-9.40912,38.79495],[-9.409,38.79488],[-9.40879,38.79369],[-9.40783,38.7946],[-9.40734,38.79469],[-9.40698,38.7955],[-9.40543,38.7955],[-9.40408,38.79525],[-9.40392,38.79627],[-9.40346,38.79625],[-9.40293,38.79671],[-9.40233,38.79695],[-9.40113,38.79686],[-9.39914,38.79806],[-9.39971,38.7993],[-9.39979,38.79995],[-9.39966,38.80002],[-9.39761,38.79914],[-9.39707,38.79834],[-9.39479,38.79773],[-9.3945,38.79737]]]},"properties":{"OBJECTID":1,"SHAPE.STArea()":36280343.01991407,"SHAPE.STLength()":61276.55730140784,"NINV":"72949","Designacao":"Paisagem Cultural de Sintra","Classifica":"Aviso n.º 15169/2010, DR, II série, n.º 147, de 30 de julho de 2010","Restricoes":"Não","Regulamento":"https://cloud.cm-sintra.pt/s/H79QNwTyezCXLJd","Pag_Regulamento":"32","Guiao":"https://cloud.cm-sintra.pt/s/DqxzTELFktdZGKZ","Pag_Guiao":"","Relatorio":"https://cloud.cm-sintra.pt/s/DpQF9g5C5LiACtM","Pag_relatorio":"67"}},{"type":"Feature","id":2,"geometry":{"type":"Polygon","coordinates":[[[-9.38189,38.79138],[-9.38202,38.79043],[-9.38089,38.79044],[-9.38039,38.79063],[-9.38057,38.7914],[-9.38189,38.79138]],[[-9.38132,38.79089],[-9.38121,38.79082],[-9.38134,38.79083],[-9.38132,38.79089]]]},"properties":{"OBJECTID":2,"SHAPE.STArea()":12833.34176947,"SHAPE.STLength()":499.33067002696777,"NINV":"3416","Designacao":"Capela de São Lázaro","Classifica":"Portaria de 23-01-1951, publicada no DG, II Série, n.º 37, de 15-02-1951","Restricoes":"Sim","Regulamento":"https://cloud.cm-sintra.pt/s/H79QNwTyezCXLJd","Pag_Regulamento":"32","Guiao":"https://cloud.cm-sintra.pt/s/DqxzTELFktdZGKZ","Pag_Guiao":"","Relatorio":"https://cloud.cm-sintra.pt/s/DpQF9g5C5LiACtM","Pag_relatorio":"67"}},{"type":"Feature","id":3,"geometry":{"type":"Polygon","coordinates":[[[-9.2857,38.84454],[-9.28601,38.84454],[-9.2868,38.84389],[-9.28809,38.84145],[-9.28845,38.84108],[-9.28972,38.84035],[-9.2914,38.83771],[-9.29146,38.8371],[-9.29181,38.8364],[-9.29158,38.83553],[-9.2907,38.83478],[-9.29097,38.83439],[-9.29101,38.83331],[-9.28777,38.83185],[-9.27942,38.83513],[-9.27303,38.83716],[-9.27299,38.83772],[-9.27481,38.83815],[-9.27518,38.83843],[-9.27548,38.8391],[-9.27502,38.83966],[-9.27439,38.84118],[-9.27474,38.84268],[-9.27742,38.84295],[-9.27779,38.84313],[-9.27737,38.84405],[-9.27737,38.8442],[-9.27761,38.84415],[-9.27768,38.84442],[-9.28117,38.84457],[-9.2857,38.84454]],[[-9.28617,38.83851],[-9.28582,38.83875],[-9.28535,38.83942],[-9.28561,38.83975],[-9.28536,38.83991],[-9.2853,38.84045],[-9.28458,38.84188],[-9.28383,38.84243],[-9.28278,38.8424],[-9.27732,38.84096],[-9.27778,38.84033],[-9.27737,38.83961],[-9.27734,38.83868],[-9.2771,38.83829],[-9.27712,38.83778],[-9.2781,38.83704],[-9.27779,38.83659],[-9.28099,38.8355],[-9.28355,38.83417],[-9.2844,38.83434],[-9.28575,38.83427],[-9.28675,38.83462],[-9.28835,38.83437],[-9.28897,38.83411],[-9.28944,38.83424],[-9.28917,38.83474],[-9.28834,38.83537],[-9.28819,38.83611],[-9.28731,38.83689],[-9.28663,38.83724],[-9.28693,38.83755],[-9.28677,38.83834],[-9.28617,38.83851]]]},"properties":{"OBJECTID":3,"SHAPE.STArea()":893835.10658939,"SHAPE.STLength()":8572.995266624412,"NINV":"1872","Designacao":"Complexo arqueológico de Olelas","Classifica":"Portaria n.º 208/2013, DR, 2.ª série, n.º 71, de 11-04-2013","Restricoes":"Sim","Regulamento":"https://cloud.cm-sintra.pt/s/H79QNwTyezCXLJd","Pag_Regulamento":"32","Guiao":"https://cloud.cm-sintra.pt/s/DqxzTELFktdZGKZ","Pag_Guiao":"","Relatorio":"https://cloud.cm-sintra.pt/s/DpQF9g5C5LiACtM","Pag_relatorio":"67"}},{"type":"Feature","id":4,"geometry":{"type":"Polygon","coordinates":[[[-9.38546,38.79474],[-9.3862,38.79531],[-9.38731,38.79549],[-9.38779,38.79419],[-9.38908,38.79405],[-9.39054,38.79339],[-9.39047,38.79298],[-9.39112,38.79248],[-9.39094,38.7916],[-9.3911,38.79129],[-9.3907,38.79044],[-9.39028,38.78998],[-9.38939,38.79005],[-9.38899,38.78987],[-9.38939,38.78953],[-9.38936,38.78931],[-9.38907,38.78905],[-9.38792,38.78868],[-9.3874,38.78797],[-9.38585,38.78829],[-9.38563,38.78954],[-9.3859,38.78996],[-9.38537,38.79066],[-9.38501,38.79073],[-9.38401,38.79176],[-9.38338,38.79195],[-9.38272,38.79177],[-9.38195,38.79189],[-9.38171,38.79215],[-9.38187,38.79232],[-9.3812,38.79241],[-9.38147,38.79274],[-9.38136,38.79303],[-9.38122,38.79329],[-9.38094,38.79324],[-9.38086,38.79397],[-9.38034,38.79417],[-9.38032,38.7946],[-9.38276,38.79417],[-9.38366,38.79419],[-9.3837,38.79441],[-9.38407,38.79466],[-9.38506,38.7945],[-9.38546,38.79474]],[[-9.38881,38.79309],[-9.38833,38.79304],[-9.38876,38.79195],[-9.38949,38.79194],[-9.38998,38.79236],[-9.38999,38.79266],[-9.38965,38.79267],[-9.38881,38.79309]],[[-9.38485,38.79373],[-9.38491,38.79385],[-9.38458,38.79391],[-9.38456,38.79376],[-9.38485,38.79373]]]},"properties":{"OBJECTID":4,"SHAPE.STArea()":386532.886340075,"SHAPE.STLength()":3827.7378830991415,"NINV":"71811","Designacao":"ZEP conjunta do Castelo dos Mouros e da Igreja de Santa Maria","Classifica":"Portaria n.º 670/99, DR, 2.ª Série, n.º 150, de 30-06-1999","Restricoes":"Sim","Regulamento":"https://cloud.cm-sintra.pt/s/H79QNwTyezCXLJd","Pag_Regulamento":"32","Guiao":"https://cloud.cm-sintra.pt/s/DqxzTELFktdZGKZ","Pag_Guiao":"","Relatorio":"https://cloud.cm-sintra.pt/s/DpQF9g5C5LiACtM","Pag_relatorio":"67"}},{"type":"Feature","id":5,"geometry":{"type":"Polygon","coordinates":[[[-9.46774,38.82764],[-9.46858,38.8268],[-9.46814,38.82618],[-9.46911,38.82575],[-9.46927,38.82548],[-9.46844,38.82454],[-9.46819,38.82469],[-9.46806,38.82456],[-9.46702,38.82514],[-9.46665,38.82493],[-9.46595,38.82558],[-9.46621,38.82585],[-9.46586,38.82603],[-9.46566,38.82628],[-9.46569,38.82656],[-9.46547,38.82662],[-9.46581,38.8275],[-9.46702,38.82708],[-9.46729,38.82746],[-9.46754,38.82736],[-9.46774,38.82764]],[[-9.4664,38.8264],[-9.46624,38.82645],[-9.46631,38.82634],[-9.4664,38.8264]]]},"properties":{"OBJECTID":5,"SHAPE.STArea()":66238.11187912,"SHAPE.STLength()":1301.1735039088824,"NINV":"3429","Designacao":"Monumento pré-histórico da Praia das Maçãs","Classifica":"Portaria n.º 49/2014, DR, 2.ª série, n.º 14, de 21-01-2014","Restricoes":"Sim","Regulamento":"https://cloud.cm-sintra.pt/s/H79QNwTyezCXLJd","Pag_Regulamento":"32","Guiao":"https://cloud.cm-sintra.pt/s/DqxzTELFktdZGKZ","Pag_Guiao":"","Relatorio":"https://cloud.cm-sintra.pt/s/DpQF9g5C5LiACtM","Pag_relatorio":"67"}},{"type":"Feature","id":6,"geometry":{"type":"Polygon","coordinates":[[[-9.29256,38.79834],[-9.29163,38.79868],[-9.29232,38.79911],[-9.29844,38.79916],[-9.30287,38.79983],[-9.30497,38.79963],[-9.30657,38.79913],[-9.30735,38.79873],[-9.30784,38.7982],[-9.30843,38.79693],[-9.30762,38.79638],[-9.3086,38.79535],[-9.30835,38.795],[-9.30861,38.79462],[-9.30808,38.79366],[-9.30879,38.79355],[-9.30955,38.7929],[-9.30971,38.79212],[-9.30946,38.79196],[-9.3079,38.79177],[-9.30693,38.79118],[-9.30624,38.79104],[-9.30557,38.79127],[-9.30537,38.79156],[-9.30456,38.7918],[-9.30394,38.79176],[-9.30355,38.79201],[-9.30307,38.79202],[-9.30244,38.79232],[-9.30075,38.79249],[-9.29946,38.79221],[-9.29878,38.79225],[-9.29869,38.79248],[-9.29801,38.79257],[-9.29525,38.79092],[-9.29508,38.79067],[-9.29522,38.79028],[-9.29431,38.78944],[-9.29397,38.78931],[-9.29324,38.79059],[-9.29222,38.79355],[-9.29264,38.79454],[-9.29378,38.79547],[-9.29239,38.79713],[-9.29242,38.79734],[-9.29294,38.79753],[-9.29305,38.79806],[-9.29303,38.79819],[-9.29256,38.79834]],[[-9.29463,38.79829],[-9.2944,38.79819],[-9.29597,38.79516],[-9.29628,38.79417],[-9.30654,38.79344],[-9.3069,38.79375],[-9.30655,38.79433],[-9.30695,38.79447],[-9.30534,38.79704],[-9.30473,38.79734],[-9.3039,38.7974],[-9.30398,38.79679],[-9.30261,38.79585],[-9.30059,38.79601],[-9.29872,38.79574],[-9.29838,38.79628],[-9.29632,38.79779],[-9.29525,38.79756],[-9.29463,38.79829]]]},"properties":{"OBJECTID":6,"SHAPE.STArea()":882044.39741503,"SHAPE.STLength()":8395.94308585866,"NINV":"436","Designacao":"Quinta do Molha Pão","Classifica":"Portaria n.º 740-DE/2012, DR, 2.ª série, n.º 248 (suplemento), de 24-12-2012","Restricoes":"Não","Regulamento":"https://cloud.cm-sintra.pt/s/H79QNwTyezCXLJd","Pag_Regulamento":"32","Guiao":"https://cloud.cm-sintra.pt/s/DqxzTELFktdZGKZ","Pag_Guiao":"","Relatorio":"https://cloud.cm-sintra.pt/s/DpQF9g5C5LiACtM","Pag_relatorio":"67"}},{"type":"Feature","id":7,"geometry":{"type":"Polygon","coordinates":[[[-9.30252,38.86724],[-9.30427,38.86825],[-9.3047,38.86792],[-9.30518,38.86693],[-9.30582,38.86735],[-9.30641,38.8669],[-9.30746,38.86567],[-9.30749,38.8654],[-9.30718,38.86505],[-9.30657,38.86486],[-9.3063,38.8635],[-9.30672,38.86339],[-9.30768,38.86349],[-9.30875,38.86308],[-9.31114,38.86261],[-9.31124,38.8622],[-9.31088,38.86183],[-9.31172,38.86107],[-9.31185,38.86076],[-9.31081,38.859],[-9.3104,38.85884],[-9.30904,38.85893],[-9.30863,38.8592],[-9.30813,38.86005],[-9.3077,38.8597],[-9.30678,38.85936],[-9.30615,38.85951],[-9.30573,38.85985],[-9.30241,38.85859],[-9.30179,38.8581],[-9.30173,38.85782],[-9.30087,38.85812],[-9.30105,38.85839],[-9.30016,38.86002],[-9.29987,38.86101],[-9.29897,38.862],[-9.29904,38.86214],[-9.30137,38.86174],[-9.30294,38.86376],[-9.30275,38.86397],[-9.30057,38.86409],[-9.2996,38.86454],[-9.29948,38.86465],[-9.30051,38.86459],[-9.30112,38.86471],[-9.30132,38.8653],[-9.30099,38.8659],[-9.30017,38.8662],[-9.29925,38.86697],[-9.2995,38.86723],[-9.29993,38.86731],[-9.30146,38.86704],[-9.30182,38.86684],[-9.30252,38.86724]],[[-9.30821,38.86287],[-9.30804,38.86326],[-9.30687,38.86248],[-9.3061,38.86149],[-9.30591,38.86097],[-9.30598,38.86024],[-9.30644,38.8599],[-9.30681,38.85983],[-9.30753,38.86015],[-9.30807,38.86079],[-9.30884,38.86011],[-9.30918,38.85939],[-9.31036,38.85928],[-9.31127,38.86078],[-9.31009,38.86185],[-9.31069,38.86233],[-9.30833,38.86267],[-9.30821,38.86287]]]},"properties":{"OBJECTID":7,"SHAPE.STArea()":538527.81293707,"SHAPE.STLength()":6764.809674011579,"NINV":"73280","Designacao":"Sítio Arqueológico da Granja dos Serrões","Classifica":"Portaria n.º 268/2013, DR, 2.ª série, n.º 90, de 10-05-2013","Restricoes":"Sim","Regulamento":"https://cloud.cm-sintra.pt/s/H79QNwTyezCXLJd","Pag_Regulamento":"32","Guiao":"https://cloud.cm-sintra.pt/s/DqxzTELFktdZGKZ","Pag_Guiao":"","Relatorio":"https://cloud.cm-sintra.pt/s/DpQF9g5C5LiACtM","Pag_relatorio":"67"}},{"type":"Feature","id":8,"geometry":{"type":"Polygon","coordinates":[[[-9.28693,38.76824],[-9.28694,38.76841],[-9.28962,38.76825],[-9.28982,38.76789],[-9.29027,38.76802],[-9.29072,38.76708],[-9.29153,38.76716],[-9.29249,38.76684],[-9.29421,38.76618],[-9.29524,38.76534],[-9.28945,38.76116],[-9.28307,38.76346],[-9.28538,38.76504],[-9.28672,38.76521],[-9.28693,38.76824]],[[-9.29028,38.76643],[-9.29002,38.76691],[-9.28957,38.76696],[-9.28962,38.76608],[-9.28897,38.76611],[-9.28832,38.76578],[-9.28864,38.76397],[-9.2909,38.76371],[-9.29028,38.76643]]]},"properties":{"OBJECTID":8,"SHAPE.STArea()":383076.39409963,"SHAPE.STLength()":3969.6858325998746,"NINV":"70142","Designacao":"Sítio Arqueológico de Colaride","Classifica":"Portaria n.º 187/2013, DR, 2.ª série, n.º 69, de 9-04-2013","Restricoes":"Não","Regulamento":"https://cloud.cm-sintra.pt/s/H79QNwTyezCXLJd","Pag_Regulamento":"32","Guiao":"https://cloud.cm-sintra.pt/s/DqxzTELFktdZGKZ","Pag_Guiao":"","Relatorio":"https://cloud.cm-sintra.pt/s/DpQF9g5C5LiACtM","Pag_relatorio":"67"}},{"type":"Feature","id":9,"geometry":{"type":"Polygon","coordinates":[[[-9.25756,38.75862],[-9.2594,38.7592],[-9.26101,38.75904],[-9.26236,38.75836],[-9.26461,38.7563],[-9.26726,38.75572],[-9.26672,38.75409],[-9.2671,38.75351],[-9.26875,38.75222],[-9.26857,38.75179],[-9.26895,38.75066],[-9.27021,38.75012],[-9.27203,38.74995],[-9.27124,38.7489],[-9.27028,38.74816],[-9.26913,38.74765],[-9.26922,38.74653],[-9.26637,38.74459],[-9.26392,38.74342],[-9.26334,38.74222],[-9.26414,38.74114],[-9.26334,38.74087],[-9.26099,38.74164],[-9.26049,38.74176],[-9.26024,38.74158],[-9.25739,38.74242],[-9.25671,38.74214],[-9.25645,38.7422],[-9.255,38.74076],[-9.25401,38.74003],[-9.25265,38.73919],[-9.25169,38.73893],[-9.25133,38.7398],[-9.25175,38.74065],[-9.25155,38.74202],[-9.25051,38.74222],[-9.25047,38.74236],[-9.2495,38.74266],[-9.24924,38.74332],[-9.24847,38.7439],[-9.24828,38.74296],[-9.24775,38.74306],[-9.24801,38.74413],[-9.24755,38.74487],[-9.24768,38.74595],[-9.24712,38.74735],[-9.24744,38.74914],[-9.24914,38.74938],[-9.25321,38.74927],[-9.25364,38.74938],[-9.25303,38.75177],[-9.25528,38.7543],[-9.25424,38.75638],[-9.25536,38.75636],[-9.25572,38.75649],[-9.25726,38.75847],[-9.25756,38.75862]],[[-9.26164,38.75331],[-9.25922,38.75233],[-9.25873,38.75162],[-9.25888,38.75155],[-9.25867,38.75126],[-9.25926,38.75071],[-9.25915,38.75057],[-9.25826,38.75075],[-9.25763,38.74998],[-9.25603,38.74912],[-9.25602,38.74893],[-9.25784,38.74808],[-9.25981,38.74788],[-9.25991,38.74774],[-9.26078,38.7479],[-9.26085,38.74875],[-9.26148,38.75012],[-9.26211,38.75106],[-9.26202,38.75132],[-9.26282,38.75165],[-9.26245,38.75211],[-9.26322,38.75253],[-9.26267,38.75311],[-9.26194,38.7528],[-9.26164,38.75331]]]},"properties":{"OBJECTID":9,"SHAPE.STArea()":2423485.300853205,"SHAPE.STLength()":10180.508965425548,"NINV":"3432","Designacao":"Palácio Nacional de Queluz, compreendendo os jardins","Classifica":"Portaria de 30-07-1968, publicada no DG, II Série, n.º 200, de 24-08-1968","Restricoes":"Sim","Regulamento":"https://cloud.cm-sintra.pt/s/H79QNwTyezCXLJd","Pag_Regulamento":"32","Guiao":"https://cloud.cm-sintra.pt/s/DqxzTELFktdZGKZ","Pag_Guiao":"","Relatorio":"https://cloud.cm-sintra.pt/s/DpQF9g5C5LiACtM","Pag_relatorio":"67"}},{"type":"Feature","id":10,"geometry":{"type":"Polygon","coordinates":[[[-9.43546,38.83355],[-9.43549,38.83419],[-9.4368,38.83458],[-9.43783,38.83375],[-9.43781,38.83277],[-9.43739,38.83287],[-9.43744,38.83222],[-9.43632,38.83201],[-9.43626,38.83236],[-9.43536,38.83244],[-9.43546,38.83355]],[[-9.43648,38.83322],[-9.43635,38.83309],[-9.43657,38.83308],[-9.43648,38.83322]]]},"properties":{"OBJECTID":10,"SHAPE.STArea()":44853.079732135,"SHAPE.STLength()":967.8580058127601,"NINV":"3417","Designacao":"Capela de São Mamede de Janas","Classifica":"Portaria n.º 697/2015, DR, 2.ª série, n.º 183, de 18-09-2015","Restricoes":"Sim","Regulamento":"https://cloud.cm-sintra.pt/s/H79QNwTyezCXLJd","Pag_Regulamento":"32","Guiao":"https://cloud.cm-sintra.pt/s/DqxzTELFktdZGKZ","Pag_Guiao":"","Relatorio":"https://cloud.cm-sintra.pt/s/DpQF9g5C5LiACtM","Pag_relatorio":"67"}},{"type":"Feature","id":11,"geometry":{"type":"Polygon","coordinates":[[[-9.47592,38.7872],[-9.47685,38.78707],[-9.47704,38.78682],[-9.4767,38.78665],[-9.47652,38.78632],[-9.47684,38.78564],[-9.47743,38.78507],[-9.47687,38.7847],[-9.47688,38.7841],[-9.47676,38.78406],[-9.47661,38.78447],[-9.47582,38.78441],[-9.47564,38.78505],[-9.47525,38.78504],[-9.47523,38.78485],[-9.47439,38.78456],[-9.47427,38.78475],[-9.47518,38.7854],[-9.47503,38.78675],[-9.47564,38.7868],[-9.47592,38.7872]],[[-9.47592,38.78573],[-9.47571,38.78578],[-9.47568,38.78567],[-9.47592,38.78573]]]},"properties":{"OBJECTID":11,"SHAPE.STArea()":44059.83684006,"SHAPE.STLength()":1300.2783594853393,"NINV":"1549","Designacao":"Igreja de Nossa Senhora da Conceição da Ulgueira","Classifica":"Portaria n.º 255/2016, DR, 2.ª série, n.º 166, de 31-08-2016","Restricoes":"Sim","Regulamento":"https://cloud.cm-sintra.pt/s/H79QNwTyezCXLJd","Pag_Regulamento":"32","Guiao":"https://cloud.cm-sintra.pt/s/DqxzTELFktdZGKZ","Pag_Guiao":"","Relatorio":"https://cloud.cm-sintra.pt/s/DpQF9g5C5LiACtM","Pag_relatorio":"67"}},{"type":"Feature","id":12,"geometry":{"type":"Polygon","coordinates":[[[-9.44528,38.79977],[-9.44714,38.8005],[-9.44812,38.80169],[-9.44936,38.80055],[-9.44907,38.8001],[-9.44879,38.79994],[-9.4492,38.799],[-9.4488,38.79865],[-9.44923,38.79802],[-9.44867,38.79787],[-9.44626,38.79822],[-9.44464,38.79937],[-9.44473,38.79957],[-9.44528,38.79977]],[[-9.44696,38.79943],[-9.44706,38.79956],[-9.44682,38.79975],[-9.44649,38.79942],[-9.44708,38.79921],[-9.44696,38.79943]]]},"properties":{"OBJECTID":12,"SHAPE.STArea()":90159.85656406,"SHAPE.STLength()":1582.1062751032987,"NINV":"1462","Designacao":"Igreja de Nossa Senhora da Assunção, matriz de Colares, incluindo o adro","Classifica":"Portaria n.º 186/2017, DR, 2.ª série, n.º 141, de 24-07-2017","Restricoes":"Sim","Regulamento":"https://cloud.cm-sintra.pt/s/H79QNwTyezCXLJd","Pag_Regulamento":"32","Guiao":"https://cloud.cm-sintra.pt/s/DqxzTELFktdZGKZ","Pag_Guiao":"","Relatorio":"https://cloud.cm-sintra.pt/s/DpQF9g5C5LiACtM","Pag_relatorio":"67"}},{"type":"Feature","id":13,"geometry":{"type":"Polygon","coordinates":[[[-9.39753,38.87579],[-9.39859,38.87553],[-9.39866,38.87571],[-9.39893,38.87566],[-9.39908,38.87547],[-9.399,38.87533],[-9.39921,38.87526],[-9.39911,38.87515],[-9.39997,38.87493],[-9.39982,38.8747],[-9.39994,38.8743],[-9.39975,38.87433],[-9.39919,38.87372],[-9.39944,38.87349],[-9.39943,38.87316],[-9.39922,38.87303],[-9.399,38.87251],[-9.39887,38.87252],[-9.39886,38.87201],[-9.39868,38.87187],[-9.39848,38.87194],[-9.3984,38.87179],[-9.39771,38.87189],[-9.39736,38.87172],[-9.39729,38.87208],[-9.39699,38.87214],[-9.39758,38.87412],[-9.39655,38.87445],[-9.39677,38.87481],[-9.39693,38.87478],[-9.39713,38.87549],[-9.39753,38.87579]],[[-9.3983,38.87496],[-9.39793,38.87458],[-9.39862,38.87449],[-9.39862,38.87485],[-9.39829,38.87486],[-9.3983,38.87496]]]},"properties":{"OBJECTID":13,"SHAPE.STArea()":77546.2328705,"SHAPE.STLength()":1700.7138875689593,"NINV":"3439","Designacao":"Igreja de São João Baptista, matriz de São João das Lampas, e respetivo adro","Classifica":"Portaria n.º 513/2018, DR, 2.ª série, n.º 196, de 11-10-2018","Restricoes":"Sim","Regulamento":"https://cloud.cm-sintra.pt/s/H79QNwTyezCXLJd","Pag_Regulamento":"32","Guiao":"https://cloud.cm-sintra.pt/s/DqxzTELFktdZGKZ","Pag_Guiao":"","Relatorio":"https://cloud.cm-sintra.pt/s/DpQF9g5C5LiACtM","Pag_relatorio":"67"}}]}