{"type":"FeatureCollection","features":[{"type":"Feature","id":1,"geometry":{"type":"Polygon","coordinates":[[[-9.282,38.83657],[-9.27836,38.83657],[-9.27814,38.83664],[-9.27802,38.83689],[-9.27921,38.83722],[-9.28216,38.83677],[-9.28366,38.83718],[-9.28518,38.83708],[-9.28593,38.83731],[-9.28703,38.8374],[-9.28792,38.83713],[-9.28822,38.83671],[-9.28866,38.83647],[-9.28953,38.83632],[-9.29166,38.83675],[-9.2934,38.83642],[-9.29402,38.83591],[-9.29516,38.83557],[-9.29778,38.83587],[-9.29907,38.83565],[-9.30096,38.83562],[-9.30122,38.83509],[-9.30266,38.83432],[-9.30288,38.834],[-9.30769,38.83275],[-9.3094,38.83287],[-9.30985,38.83347],[-9.31011,38.83432],[-9.31083,38.83436],[-9.31154,38.83541],[-9.31275,38.83623],[-9.31897,38.83738],[-9.31955,38.83768],[-9.32096,38.83798],[-9.32177,38.8386],[-9.32334,38.83915],[-9.32427,38.84004],[-9.32462,38.8406],[-9.32564,38.8412],[-9.32608,38.8418],[-9.32735,38.84194],[-9.32834,38.8428],[-9.32793,38.84421],[-9.32771,38.84462],[-9.32725,38.84496],[-9.32766,38.84579],[-9.32817,38.84597],[-9.32965,38.84585],[-9.33043,38.84596],[-9.33119,38.84581],[-9.33226,38.84615],[-9.33281,38.84788],[-9.33414,38.84831],[-9.33402,38.84976],[-9.33509,38.85006],[-9.33674,38.85017],[-9.33807,38.85044],[-9.33885,38.85093],[-9.34011,38.85207],[-9.34043,38.85265],[-9.34049,38.85389],[-9.34122,38.85443],[-9.34117,38.85491],[-9.3421,38.85618],[-9.3433,38.85656],[-9.3439,38.85653],[-9.34503,38.856],[-9.34603,38.85577],[-9.34758,38.85613],[-9.34866,38.85587],[-9.34927,38.85637],[-9.34923,38.85564],[-9.3494,38.85553],[-9.34732,38.8556],[-9.34631,38.85533],[-9.34552,38.85545],[-9.34374,38.85623],[-9.34333,38.85629],[-9.34218,38.85598],[-9.34127,38.85489],[-9.34135,38.85443],[-9.34051,38.85375],[-9.34049,38.85328],[-9.34072,38.8527],[-9.34037,38.85159],[-9.33971,38.85057],[-9.33878,38.84983],[-9.33654,38.84912],[-9.33439,38.84895],[-9.33422,38.84872],[-9.3342,38.84828],[-9.33288,38.84732],[-9.33289,38.84681],[-9.33335,38.84651],[-9.33347,38.84624],[-9.33342,38.84593],[-9.33265,38.8453],[-9.32926,38.84534],[-9.32802,38.84496],[-9.32787,38.84478],[-9.32823,38.84418],[-9.32846,38.84301],[-9.32948,38.84208],[-9.32924,38.84167],[-9.32882,38.84137],[-9.32883,38.84059],[-9.32754,38.84],[-9.32707,38.83962],[-9.3267,38.8389],[-9.32672,38.8384],[-9.32633,38.8379],[-9.32457,38.83726],[-9.32389,38.83661],[-9.32427,38.83596],[-9.3237,38.83563],[-9.32274,38.83567],[-9.32182,38.83624],[-9.32146,38.83667],[-9.32035,38.83709],[-9.3147,38.83649],[-9.31292,38.83612],[-9.31162,38.83535],[-9.31087,38.8343],[-9.31019,38.8342],[-9.31022,38.8333],[-9.31003,38.833],[-9.31,38.83256],[-9.30953,38.83213],[-9.30886,38.83189],[-9.30773,38.83185],[-9.30545,38.83216],[-9.30462,38.83268],[-9.30224,38.83349],[-9.30147,38.83403],[-9.3008,38.83479],[-9.30047,38.83486],[-9.29932,38.83474],[-9.29714,38.83515],[-9.29367,38.83513],[-9.29217,38.8357],[-9.2919,38.83594],[-9.29181,38.83632],[-9.28869,38.83635],[-9.28813,38.83666],[-9.28793,38.83701],[-9.28701,38.83729],[-9.28593,38.83722],[-9.2852,38.837],[-9.28366,38.83709],[-9.282,38.83657]]]},"properties":{"ZAC":1,"ZA":0,"OBJECTID":1,"area_ha":59.30318878,"Shape.STArea()":593031.88778413,"Shape.STLength()":17098.276393761076,"Descricao":"Zonas ameaçadas pelas cheias"}},{"type":"Feature","id":2,"geometry":{"type":"Polygon","coordinates":[[[-9.48444,38.8006],[-9.48437,38.80243],[-9.48486,38.8024],[-9.48447,38.80127],[-9.48446,38.80036],[-9.48466,38.80002],[-9.48437,38.79936],[-9.48404,38.79895],[-9.48338,38.79872],[-9.48241,38.79759],[-9.48152,38.79708],[-9.48082,38.79626],[-9.48021,38.79601],[-9.48002,38.79576],[-9.47999,38.79521],[-9.47972,38.79501],[-9.4794,38.79427],[-9.47833,38.79368],[-9.47731,38.79366],[-9.47617,38.79325],[-9.47572,38.79271],[-9.47485,38.7924],[-9.4746,38.79172],[-9.47403,38.79087],[-9.47227,38.79034],[-9.47155,38.79001],[-9.47109,38.78961],[-9.46956,38.78943],[-9.46908,38.78913],[-9.46767,38.78925],[-9.46631,38.78871],[-9.46521,38.78874],[-9.46347,38.78813],[-9.46324,38.78782],[-9.46201,38.78698],[-9.4618,38.78617],[-9.46221,38.78604],[-9.46199,38.78558],[-9.46156,38.78567],[-9.46193,38.78695],[-9.46303,38.78786],[-9.46289,38.78797],[-9.46304,38.78816],[-9.46389,38.78828],[-9.46549,38.78888],[-9.466,38.78879],[-9.4674,38.7893],[-9.46904,38.78919],[-9.4696,38.78949],[-9.47093,38.78963],[-9.47271,38.79074],[-9.47385,38.79084],[-9.47449,38.79173],[-9.47465,38.79238],[-9.47502,38.79267],[-9.47568,38.79282],[-9.47622,38.79346],[-9.47689,38.79351],[-9.47713,38.79375],[-9.47831,38.79386],[-9.47902,38.7942],[-9.47955,38.79477],[-9.47948,38.7951],[-9.47979,38.79529],[-9.48015,38.79625],[-9.48063,38.79644],[-9.48229,38.79773],[-9.48294,38.79859],[-9.48402,38.79911],[-9.48447,38.79985],[-9.48444,38.8006]]]},"properties":{"ZAC":1,"ZA":0,"OBJECTID":2,"area_ha":4.12761774,"Shape.STArea()":41276.177403005,"Shape.STLength()":6410.477640497551,"Descricao":"Zonas ameaçadas pelas cheias"}},{"type":"Feature","id":3,"geometry":{"type":"Polygon","coordinates":[[[-9.47529,38.77619],[-9.47505,38.77631],[-9.47572,38.77652],[-9.47669,38.77659],[-9.47726,38.77685],[-9.47768,38.77727],[-9.47899,38.77743],[-9.47957,38.77849],[-9.48109,38.77928],[-9.48148,38.78023],[-9.48201,38.78083],[-9.48269,38.7812],[-9.48343,38.7813],[-9.48352,38.78211],[-9.48468,38.78346],[-9.48518,38.78429],[-9.48496,38.7857],[-9.48523,38.78595],[-9.48513,38.78637],[-9.48551,38.78665],[-9.48567,38.78744],[-9.48551,38.78792],[-9.48588,38.78835],[-9.48597,38.78874],[-9.48585,38.78914],[-9.48591,38.79001],[-9.48615,38.79056],[-9.48604,38.79107],[-9.48693,38.79105],[-9.48784,38.79155],[-9.4884,38.79155],[-9.48958,38.79113],[-9.49034,38.79112],[-9.4913,38.79082],[-9.49023,38.79105],[-9.4896,38.791],[-9.48933,38.79121],[-9.48808,38.79148],[-9.48644,38.79081],[-9.48619,38.79025],[-9.48608,38.78855],[-9.4858,38.78802],[-9.48563,38.78666],[-9.48526,38.78613],[-9.48539,38.78592],[-9.48528,38.78539],[-9.4854,38.78486],[-9.48527,38.78377],[-9.48407,38.78264],[-9.48349,38.78121],[-9.48217,38.78073],[-9.48113,38.77902],[-9.47965,38.77826],[-9.47908,38.7773],[-9.47787,38.7772],[-9.47749,38.77681],[-9.47675,38.77649],[-9.47529,38.77619]]]},"properties":{"ZAC":1,"ZA":0,"OBJECTID":3,"area_ha":4.13174084,"Shape.STArea()":41317.40841444,"Shape.STLength()":5327.408808353204,"Descricao":"Zonas ameaçadas pelas cheias"}},{"type":"Feature","id":4,"geometry":{"type":"Polygon","coordinates":[[[-9.49694,38.77742],[-9.49669,38.77743],[-9.49635,38.77805],[-9.49477,38.77892],[-9.49295,38.77916],[-9.49132,38.77877],[-9.48957,38.77897],[-9.48895,38.77866],[-9.48776,38.77753],[-9.4872,38.77729],[-9.48693,38.77657],[-9.48654,38.77622],[-9.48618,38.77557],[-9.48405,38.77455],[-9.48393,38.77463],[-9.48449,38.77508],[-9.48611,38.77585],[-9.4868,38.77681],[-9.48693,38.77735],[-9.48774,38.77767],[-9.48939,38.77908],[-9.49108,38.77904],[-9.49117,38.77921],[-9.49179,38.77913],[-9.49275,38.77941],[-9.49432,38.77919],[-9.49572,38.77869],[-9.49608,38.77824],[-9.49657,38.77804],[-9.49694,38.77742]]]},"properties":{"ZAC":1,"ZA":0,"OBJECTID":4,"area_ha":2.98065749,"Shape.STArea()":29806.57485559,"Shape.STLength()":2981.449876904789,"Descricao":"Zonas ameaçadas pelas cheias"}},{"type":"Feature","id":5,"geometry":{"type":"Polygon","coordinates":[[[-9.45671,38.7729],[-9.4566,38.77297],[-9.45675,38.77316],[-9.45765,38.77406],[-9.45811,38.7742],[-9.45921,38.77409],[-9.46059,38.77429],[-9.46188,38.77363],[-9.46354,38.77324],[-9.46538,38.7736],[-9.47155,38.77271],[-9.47477,38.77159],[-9.4761,38.76972],[-9.47578,38.76923],[-9.47629,38.76822],[-9.4777,38.76693],[-9.47811,38.76616],[-9.47878,38.76573],[-9.47942,38.76473],[-9.48035,38.76414],[-9.48074,38.76321],[-9.48133,38.7629],[-9.48168,38.76222],[-9.48305,38.76124],[-9.48337,38.76078],[-9.48417,38.76034],[-9.48331,38.76067],[-9.48269,38.76134],[-9.4816,38.76215],[-9.48123,38.76281],[-9.48056,38.76324],[-9.48017,38.76416],[-9.4792,38.76482],[-9.4788,38.76549],[-9.47811,38.76602],[-9.47665,38.76786],[-9.47604,38.76823],[-9.47561,38.76921],[-9.47585,38.76968],[-9.47481,38.77132],[-9.47432,38.77161],[-9.47145,38.77257],[-9.4682,38.77277],[-9.4677,38.77314],[-9.46637,38.77326],[-9.46244,38.77297],[-9.46017,38.77406],[-9.45978,38.77401],[-9.45989,38.77357],[-9.45966,38.77349],[-9.45813,38.77396],[-9.4578,38.77387],[-9.45671,38.7729]]]},"properties":{"ZAC":1,"ZA":0,"OBJECTID":5,"area_ha":6.9146209,"Shape.STArea()":69146.208963375,"Shape.STLength()":6672.597853366034,"Descricao":"Zonas ameaçadas pelas cheias"}},{"type":"Feature","id":6,"geometry":{"type":"Polygon","coordinates":[[[-9.43706,38.77849],[-9.43695,38.77763],[-9.43511,38.77656],[-9.43444,38.77578],[-9.43371,38.77547],[-9.43261,38.77457],[-9.43215,38.77357],[-9.43023,38.77117],[-9.43001,38.77024],[-9.42951,38.76981],[-9.42871,38.76867],[-9.42608,38.76694],[-9.42483,38.76644],[-9.4247,38.76661],[-9.42628,38.76731],[-9.42863,38.76915],[-9.42916,38.77003],[-9.42972,38.77031],[-9.42999,38.77149],[-9.43177,38.77351],[-9.43274,38.77516],[-9.4334,38.77561],[-9.43451,38.77595],[-9.43495,38.77651],[-9.43618,38.77711],[-9.4369,38.77767],[-9.43706,38.77849]]]},"properties":{"ZAC":1,"ZA":0,"OBJECTID":6,"area_ha":4.05186266,"Shape.STArea()":40518.6265914,"Shape.STLength()":3610.8922021239296,"Descricao":"Zonas ameaçadas pelas cheias"}},{"type":"Feature","id":7,"geometry":{"type":"Polygon","coordinates":[[[-9.41195,38.76064],[-9.41131,38.76119],[-9.41133,38.76147],[-9.41203,38.76221],[-9.41221,38.76305],[-9.41198,38.76355],[-9.41212,38.76502],[-9.41125,38.76687],[-9.41214,38.76795],[-9.41223,38.76836],[-9.4115,38.76992],[-9.41035,38.7708],[-9.41046,38.77151],[-9.41025,38.77206],[-9.41026,38.77259],[-9.41059,38.77072],[-9.41169,38.76996],[-9.41172,38.7696],[-9.4123,38.76908],[-9.41252,38.76865],[-9.41229,38.76759],[-9.41164,38.76676],[-9.4123,38.76474],[-9.41236,38.76261],[-9.41201,38.76193],[-9.41146,38.76135],[-9.41195,38.76064]]]},"properties":{"ZAC":1,"ZA":0,"OBJECTID":7,"area_ha":2.56181842,"Shape.STArea()":25618.1841672,"Shape.STLength()":2976.776697662051,"Descricao":"Zonas ameaçadas pelas cheias"}},{"type":"Feature","id":8,"geometry":{"type":"Polygon","coordinates":[[[-9.36504,38.76386],[-9.3654,38.76305],[-9.36627,38.76249],[-9.36584,38.7624],[-9.36542,38.76266],[-9.36531,38.76222],[-9.36542,38.76208],[-9.3649,38.76162],[-9.36549,38.76117],[-9.36548,38.76102],[-9.3649,38.76087],[-9.36461,38.76063],[-9.36496,38.76025],[-9.36496,38.76048],[-9.36521,38.76036],[-9.36512,38.76009],[-9.3643,38.75938],[-9.36435,38.75912],[-9.36474,38.75875],[-9.36471,38.75816],[-9.36423,38.75738],[-9.36406,38.75665],[-9.36499,38.75609],[-9.36459,38.75564],[-9.36356,38.7564],[-9.36347,38.75661],[-9.3644,38.75794],[-9.36421,38.75812],[-9.36456,38.75836],[-9.36459,38.75869],[-9.36411,38.7593],[-9.36453,38.76024],[-9.36412,38.76065],[-9.36413,38.76084],[-9.3629,38.76169],[-9.36351,38.76165],[-9.36366,38.76189],[-9.36346,38.76223],[-9.36439,38.76222],[-9.36451,38.76202],[-9.36487,38.76237],[-9.36412,38.76345],[-9.36426,38.76411],[-9.36378,38.76519],[-9.36432,38.76547],[-9.36358,38.76573],[-9.36379,38.7664],[-9.36442,38.76717],[-9.36399,38.76738],[-9.36375,38.76721],[-9.36388,38.76741],[-9.36317,38.76805],[-9.36291,38.76852],[-9.36355,38.76922],[-9.36339,38.76946],[-9.36256,38.76908],[-9.3632,38.76949],[-9.36281,38.76958],[-9.36243,38.76935],[-9.36131,38.77007],[-9.36164,38.77022],[-9.36227,38.76972],[-9.36274,38.76971],[-9.36362,38.77071],[-9.36425,38.77118],[-9.36451,38.77195],[-9.36445,38.77215],[-9.36538,38.77276],[-9.36545,38.77356],[-9.36443,38.7746],[-9.36436,38.77489],[-9.36461,38.77536],[-9.36469,38.77618],[-9.36507,38.7763],[-9.36602,38.77438],[-9.36631,38.77422],[-9.36654,38.7738],[-9.36658,38.7731],[-9.36627,38.77232],[-9.36629,38.77186],[-9.36566,38.77152],[-9.36449,38.77043],[-9.36438,38.76989],[-9.36404,38.76968],[-9.36388,38.76879],[-9.36345,38.76808],[-9.36397,38.76753],[-9.36429,38.76759],[-9.3641,38.76787],[-9.36422,38.76795],[-9.3647,38.76788],[-9.36488,38.76749],[-9.36537,38.76726],[-9.36506,38.76696],[-9.36532,38.76679],[-9.3653,38.76661],[-9.36459,38.76635],[-9.36472,38.76567],[-9.36434,38.76483],[-9.36448,38.76414],[-9.36504,38.7641],[-9.36504,38.76386]]]},"properties":{"ZAC":1,"ZA":0,"OBJECTID":8,"area_ha":17.95691483,"Shape.STArea()":179569.148263155,"Shape.STLength()":6860.400387141286,"Descricao":"Zonas ameaçadas pelas cheias"}},{"type":"Feature","id":9,"geometry":{"type":"Polygon","coordinates":[[[-9.37077,38.78336],[-9.37108,38.78491],[-9.37134,38.7853],[-9.37168,38.78522],[-9.37127,38.78389],[-9.37127,38.78318],[-9.37037,38.78263],[-9.37014,38.78229],[-9.36994,38.78248],[-9.37077,38.78336]]]},"properties":{"ZAC":1,"ZA":0,"OBJECTID":9,"area_ha":1.21471367,"Shape.STArea()":12147.136652045,"Shape.STLength()":793.8730279785922,"Descricao":"Zonas ameaçadas pelas cheias"}},{"type":"Feature","id":10,"geometry":{"type":"Polygon","coordinates":[[[-9.36595,38.7771],[-9.36595,38.77686],[-9.3663,38.77639],[-9.36593,38.77617],[-9.36548,38.77682],[-9.36606,38.77759],[-9.36614,38.77838],[-9.36646,38.77899],[-9.36671,38.77909],[-9.3673,38.77987],[-9.36736,38.7803],[-9.36847,38.78078],[-9.36909,38.78194],[-9.36983,38.78219],[-9.36963,38.78188],[-9.36967,38.78162],[-9.36917,38.78138],[-9.36896,38.78083],[-9.36654,38.77885],[-9.36625,38.77844],[-9.36595,38.7771]]]},"properties":{"ZAC":1,"ZA":0,"OBJECTID":10,"area_ha":2.05099979,"Shape.STArea()":20509.997914455,"Shape.STLength()":1702.302107419166,"Descricao":"Zonas ameaçadas pelas cheias"}},{"type":"Feature","id":11,"geometry":{"type":"Polygon","coordinates":[[[-9.36429,38.7652],[-9.36411,38.76503],[-9.36395,38.7652],[-9.36429,38.76536],[-9.36429,38.7652]]]},"properties":{"ZAC":1,"ZA":0,"OBJECTID":11,"area_ha":0.07859164,"Shape.STArea()":785.91637648,"Shape.STLength()":106.5444566138598,"Descricao":"Zonas ameaçadas pelas cheias"}},{"type":"Feature","id":12,"geometry":{"type":"Polygon","coordinates":[[[-9.36492,38.75601],[-9.3653,38.75576],[-9.36589,38.75583],[-9.36596,38.75498],[-9.36542,38.7548],[-9.36524,38.7544],[-9.36598,38.75383],[-9.36613,38.75348],[-9.36561,38.75287],[-9.36572,38.75274],[-9.36555,38.7528],[-9.36491,38.75201],[-9.36683,38.75039],[-9.36674,38.75014],[-9.36644,38.75001],[-9.36668,38.74969],[-9.36658,38.74932],[-9.36667,38.74882],[-9.36777,38.74699],[-9.36787,38.74628],[-9.36859,38.74607],[-9.36852,38.74563],[-9.36884,38.74482],[-9.36847,38.74415],[-9.3683,38.74428],[-9.36867,38.74487],[-9.36862,38.74512],[-9.36759,38.74624],[-9.36726,38.74763],[-9.36673,38.74829],[-9.36623,38.74945],[-9.36583,38.75098],[-9.36482,38.75197],[-9.36477,38.7525],[-9.3653,38.75293],[-9.36557,38.75291],[-9.36587,38.75343],[-9.36518,38.75435],[-9.36534,38.75488],[-9.36513,38.75486],[-9.36524,38.75506],[-9.36469,38.75561],[-9.36492,38.75601]]]},"properties":{"ZAC":1,"ZA":0,"OBJECTID":12,"area_ha":3.98690486,"Shape.STArea()":39869.04856946,"Shape.STLength()":3274.55324424864,"Descricao":"Zonas ameaçadas pelas cheias"}},{"type":"Feature","id":13,"geometry":{"type":"Polygon","coordinates":[[[-9.28255,38.81868],[-9.28135,38.81842],[-9.28054,38.81869],[-9.27973,38.81932],[-9.27999,38.81935],[-9.28033,38.8189],[-9.28103,38.81866],[-9.28252,38.81878],[-9.28255,38.81868]]]},"properties":{"ZAC":1,"ZA":0,"OBJECTID":13,"area_ha":0.48661603,"Shape.STArea()":4866.160320425,"Shape.STLength()":601.15407143222,"Descricao":"Zonas ameaçadas pelas cheias"}},{"type":"Feature","id":14,"geometry":{"type":"Polygon","coordinates":[[[-9.28345,38.81804],[-9.28293,38.81825],[-9.28263,38.81872],[-9.28381,38.81831],[-9.28433,38.81781],[-9.28692,38.81707],[-9.28511,38.81741],[-9.28437,38.8177],[-9.28391,38.81814],[-9.28345,38.81804]]]},"properties":{"ZAC":1,"ZA":0,"OBJECTID":14,"area_ha":0.75116791,"Shape.STArea()":7511.67914235,"Shape.STLength()":903.2883487353731,"Descricao":"Zonas ameaçadas pelas cheias"}},{"type":"Feature","id":15,"geometry":{"type":"Polygon","coordinates":[[[-9.30221,38.80734],[-9.30167,38.80662],[-9.30155,38.8069],[-9.30063,38.80758],[-9.30026,38.8089],[-9.29952,38.80952],[-9.29741,38.81042],[-9.29433,38.81134],[-9.29317,38.81227],[-9.29287,38.81296],[-9.291,38.81365],[-9.29022,38.81422],[-9.28988,38.8143],[-9.28958,38.81545],[-9.28904,38.81567],[-9.28899,38.81588],[-9.2884,38.81594],[-9.28738,38.8164],[-9.28696,38.81706],[-9.28986,38.81569],[-9.2901,38.81543],[-9.29024,38.81481],[-9.29078,38.81432],[-9.29108,38.81381],[-9.29244,38.81364],[-9.29365,38.81231],[-9.29485,38.81139],[-9.2977,38.81057],[-9.29813,38.81021],[-9.29848,38.81028],[-9.2992,38.81002],[-9.29992,38.81],[-9.30027,38.80949],[-9.30104,38.80895],[-9.30109,38.80871],[-9.30123,38.80889],[-9.3012,38.80831],[-9.30165,38.80787],[-9.30207,38.80774],[-9.30221,38.80734]]]},"properties":{"ZAC":1,"ZA":0,"OBJECTID":15,"area_ha":7.07368463,"Shape.STArea()":70736.846257935,"Shape.STLength()":3942.909103452293,"Descricao":"Zonas ameaçadas pelas cheias"}},{"type":"Feature","id":16,"geometry":{"type":"Polygon","coordinates":[[[-9.31255,38.80102],[-9.31319,38.80026],[-9.31312,38.80011],[-9.3126,38.80015],[-9.31227,38.80069],[-9.31127,38.80059],[-9.3099,38.80092],[-9.30946,38.80127],[-9.30912,38.80133],[-9.3092,38.80148],[-9.30877,38.80185],[-9.30856,38.80228],[-9.30945,38.80268],[-9.31002,38.80181],[-9.31072,38.80132],[-9.31183,38.80106],[-9.31255,38.80148],[-9.31255,38.80102]]]},"properties":{"ZAC":1,"ZA":0,"OBJECTID":16,"area_ha":3.29195863,"Shape.STArea()":32919.586273755,"Shape.STLength()":1204.0200578315942,"Descricao":"Zonas ameaçadas pelas cheias"}},{"type":"Feature","id":17,"geometry":{"type":"MultiPolygon","coordinates":[[[[-9.31502,38.79183],[-9.31464,38.79238],[-9.3143,38.79363],[-9.31407,38.7937],[-9.31419,38.79468],[-9.3139,38.79537],[-9.3141,38.79563],[-9.31369,38.79709],[-9.31371,38.79772],[-9.31343,38.79845],[-9.31347,38.79959],[-9.31319,38.80007],[-9.31328,38.80015],[-9.31414,38.79975],[-9.31404,38.79859],[-9.31438,38.79807],[-9.31433,38.79755],[-9.3147,38.79724],[-9.31564,38.79586],[-9.31547,38.79418],[-9.31573,38.7939],[-9.31441,38.7936],[-9.31445,38.79344],[-9.31511,38.79347],[-9.31537,38.79293],[-9.31502,38.79183]]],[[[-9.31327,38.79994],[-9.31327,38.79994],[-9.31327,38.79994],[-9.31327,38.79994]]]]},"properties":{"ZAC":1,"ZA":0,"OBJECTID":17,"area_ha":7.61913958,"Shape.STArea()":76191.3976395,"Shape.STLength()":2213.884088149822,"Descricao":"Zonas ameaçadas pelas cheias"}},{"type":"Feature","id":18,"geometry":{"type":"Polygon","coordinates":[[[-9.30705,38.7752],[-9.30715,38.77516],[-9.30687,38.77458],[-9.3065,38.77387],[-9.30639,38.77391],[-9.30705,38.7752]]]},"properties":{"ZAC":1,"ZA":0,"OBJECTID":18,"area_ha":0.15053092,"Shape.STArea()":1505.30920677,"Shape.STLength()":330.31186176489086,"Descricao":"Zonas ameaçadas pelas cheias"}},{"type":"Feature","id":19,"geometry":{"type":"Polygon","coordinates":[[[-9.30244,38.77169],[-9.30223,38.77114],[-9.30117,38.77041],[-9.30207,38.77114],[-9.30235,38.77173],[-9.30244,38.77169]]]},"properties":{"ZAC":1,"ZA":0,"OBJECTID":19,"area_ha":0.18004519,"Shape.STArea()":1800.45185698,"Shape.STLength()":388.7770985088387,"Descricao":"Zonas ameaçadas pelas cheias"}},{"type":"Feature","id":20,"geometry":{"type":"Polygon","coordinates":[[[-9.30236,38.77176],[-9.30313,38.77251],[-9.30439,38.77292],[-9.30438,38.77279],[-9.30318,38.77242],[-9.30236,38.77176]]]},"properties":{"ZAC":1,"ZA":0,"OBJECTID":20,"area_ha":0.29789982,"Shape.STArea()":2978.99823758,"Shape.STLength()":467.2491122988712,"Descricao":"Zonas ameaçadas pelas cheias"}},{"type":"Feature","id":21,"geometry":{"type":"Polygon","coordinates":[[[-9.30441,38.7728],[-9.30442,38.77292],[-9.30566,38.77299],[-9.30596,38.7732],[-9.30626,38.77379],[-9.30648,38.77385],[-9.3061,38.77316],[-9.30574,38.7729],[-9.30441,38.7728]]]},"properties":{"ZAC":1,"ZA":0,"OBJECTID":21,"area_ha":0.31242059,"Shape.STArea()":3124.20594119,"Shape.STLength()":498.9581737746028,"Descricao":"Zonas ameaçadas pelas cheias"}},{"type":"Feature","id":22,"geometry":{"type":"Polygon","coordinates":[[[-9.30103,38.77028],[-9.30125,38.77034],[-9.30104,38.77004],[-9.30103,38.77028]]]},"properties":{"ZAC":1,"ZA":0,"OBJECTID":22,"area_ha":0.04043056,"Shape.STArea()":404.305560255,"Shape.STLength()":95.90126620899387,"Descricao":"Zonas ameaçadas pelas cheias"}},{"type":"Feature","id":23,"geometry":{"type":"Polygon","coordinates":[[[-9.30082,38.76958],[-9.30085,38.77007],[-9.30099,38.76981],[-9.30095,38.76959],[-9.30082,38.76958]]]},"properties":{"ZAC":1,"ZA":0,"OBJECTID":23,"area_ha":0.06804926,"Shape.STArea()":680.4925905,"Shape.STLength()":123.7194315371897,"Descricao":"Zonas ameaçadas pelas cheias"}},{"type":"Feature","id":24,"geometry":{"type":"Polygon","coordinates":[[[-9.30053,38.76845],[-9.30052,38.76903],[-9.30075,38.76913],[-9.30082,38.76955],[-9.30095,38.76956],[-9.30092,38.76854],[-9.30051,38.76827],[-9.30053,38.76845]]]},"properties":{"ZAC":1,"ZA":0,"OBJECTID":24,"area_ha":0.37867007,"Shape.STArea()":3786.70074904,"Shape.STLength()":331.6279969778973,"Descricao":"Zonas ameaçadas pelas cheias"}},{"type":"Feature","id":25,"geometry":{"type":"Polygon","coordinates":[[[-9.30074,38.76785],[-9.30048,38.76789],[-9.30052,38.76824],[-9.30076,38.76832],[-9.30074,38.76785]]]},"properties":{"ZAC":1,"ZA":0,"OBJECTID":25,"area_ha":0.10694575,"Shape.STArea()":1069.436372445,"Shape.STLength()":144.28294889516525,"Descricao":"Zonas ameaçadas pelas cheias"}},{"type":"Feature","id":26,"geometry":{"type":"Polygon","coordinates":[[[-9.29852,38.76539],[-9.29858,38.76575],[-9.2987,38.76574],[-9.29868,38.76539],[-9.29852,38.76539]]]},"properties":{"ZAC":1,"ZA":0,"OBJECTID":26,"area_ha":0.05015429,"Shape.STArea()":501.54289998,"Shape.STLength()":103.61680160081808,"Descricao":"Zonas ameaçadas pelas cheias"}},{"type":"Feature","id":27,"geometry":{"type":"Polygon","coordinates":[[[-9.29838,38.76508],[-9.29848,38.7653],[-9.29866,38.76529],[-9.29838,38.76508]]]},"properties":{"ZAC":1,"ZA":0,"OBJECTID":27,"area_ha":0.02159514,"Shape.STArea()":215.951396665,"Shape.STLength()":84.50585731989737,"Descricao":"Zonas ameaçadas pelas cheias"}},{"type":"Feature","id":28,"geometry":{"type":"MultiPolygon","coordinates":[[[[-9.2975,38.76313],[-9.29795,38.76351],[-9.2973,38.76245],[-9.29717,38.7625],[-9.2975,38.76313]]],[[[-9.29748,38.76309],[-9.29747,38.76309],[-9.29748,38.7631],[-9.29748,38.76309]]]]},"properties":{"ZAC":1,"ZA":0,"OBJECTID":28,"area_ha":0.18322046,"Shape.STArea()":1832.20464765,"Shape.STLength()":289.66995630892427,"Descricao":"Zonas ameaçadas pelas cheias"}},{"type":"Feature","id":29,"geometry":{"type":"Polygon","coordinates":[[[-9.29512,38.75938],[-9.29435,38.75878],[-9.29391,38.7587],[-9.29382,38.75856],[-9.29402,38.75845],[-9.29363,38.7579],[-9.29361,38.75749],[-9.29176,38.7556],[-9.29168,38.75444],[-9.29095,38.75326],[-9.29125,38.75223],[-9.29108,38.75212],[-9.29079,38.75313],[-9.29098,38.75376],[-9.29143,38.75435],[-9.29164,38.75574],[-9.29311,38.75725],[-9.29301,38.75739],[-9.29328,38.75767],[-9.29354,38.75854],[-9.29511,38.76043],[-9.2955,38.76057],[-9.29563,38.76108],[-9.29586,38.76127],[-9.29605,38.76104],[-9.29643,38.76101],[-9.29692,38.76172],[-9.297,38.76226],[-9.29716,38.76248],[-9.29729,38.76243],[-9.29753,38.7621],[-9.29753,38.76169],[-9.29685,38.76062],[-9.29654,38.76037],[-9.29533,38.76035],[-9.29512,38.75938]]]},"properties":{"ZAC":1,"ZA":0,"OBJECTID":29,"area_ha":4.40465458,"Shape.STArea()":44046.54578802,"Shape.STLength()":2933.4871169602948,"Descricao":"Zonas ameaçadas pelas cheias"}},{"type":"Feature","id":30,"geometry":{"type":"Polygon","coordinates":[[[-9.29009,38.75174],[-9.29132,38.75207],[-9.29104,38.75172],[-9.29015,38.75154],[-9.29009,38.75174]]]},"properties":{"ZAC":1,"ZA":0,"OBJECTID":30,"area_ha":0.29050341,"Shape.STArea()":2905.034096635,"Shape.STLength()":267.167784940276,"Descricao":"Zonas ameaçadas pelas cheias"}},{"type":"Feature","id":31,"geometry":{"type":"Polygon","coordinates":[[[-9.28994,38.75155],[-9.28905,38.75103],[-9.2889,38.74984],[-9.28797,38.74896],[-9.28786,38.74807],[-9.28757,38.74805],[-9.28782,38.74902],[-9.28866,38.74996],[-9.28879,38.75101],[-9.28961,38.75161],[-9.28992,38.75167],[-9.28994,38.75155]]]},"properties":{"ZAC":1,"ZA":0,"OBJECTID":31,"area_ha":0.88649963,"Shape.STArea()":8864.99628615,"Shape.STLength()":1000.1182382052492,"Descricao":"Zonas ameaçadas pelas cheias"}},{"type":"Feature","id":32,"geometry":{"type":"Polygon","coordinates":[[[-9.29905,38.76626],[-9.29973,38.76699],[-9.2999,38.76692],[-9.2996,38.76659],[-9.29969,38.76646],[-9.2995,38.76647],[-9.29858,38.76577],[-9.29868,38.76606],[-9.29905,38.76626]]]},"properties":{"ZAC":1,"ZA":0,"OBJECTID":32,"area_ha":0.22003165,"Shape.STArea()":2200.31648382,"Shape.STLength()":394.34339860098913,"Descricao":"Zonas ameaçadas pelas cheias"}},{"type":"Feature","id":33,"geometry":{"type":"Polygon","coordinates":[[[-9.29974,38.76701],[-9.30028,38.76751],[-9.30064,38.76748],[-9.30003,38.76697],[-9.29974,38.76701]]]},"properties":{"ZAC":1,"ZA":0,"OBJECTID":33,"area_ha":0.2048212,"Shape.STArea()":2048.21195295,"Shape.STLength()":216.7677591455127,"Descricao":"Zonas ameaçadas pelas cheias"}},{"type":"Feature","id":34,"geometry":{"type":"Polygon","coordinates":[[[-9.30067,38.76757],[-9.30039,38.76771],[-9.30072,38.76775],[-9.30067,38.76757]]]},"properties":{"ZAC":1,"ZA":0,"OBJECTID":34,"area_ha":0.04804703,"Shape.STArea()":480.470285305,"Shape.STLength()":85.79493004298655,"Descricao":"Zonas ameaçadas pelas cheias"}},{"type":"Feature","id":35,"geometry":{"type":"Polygon","coordinates":[[[-9.30709,38.7753],[-9.30726,38.77577],[-9.30673,38.77603],[-9.30655,38.77715],[-9.30549,38.7788],[-9.30574,38.77977],[-9.30629,38.78051],[-9.30616,38.7814],[-9.30636,38.78158],[-9.30628,38.78167],[-9.30667,38.78191],[-9.3065,38.78155],[-9.30664,38.78146],[-9.30651,38.78104],[-9.3066,38.78033],[-9.30644,38.7802],[-9.30655,38.78],[-9.30633,38.77932],[-9.30631,38.77846],[-9.30687,38.77784],[-9.30701,38.77719],[-9.30773,38.77669],[-9.30777,38.77645],[-9.3072,38.77526],[-9.30709,38.7753]]]},"properties":{"ZAC":1,"ZA":0,"OBJECTID":35,"area_ha":3.93560813,"Shape.STArea()":39356.08128564,"Shape.STLength()":1689.1548742338891,"Descricao":"Zonas ameaçadas pelas cheias"}},{"type":"Feature","id":36,"geometry":{"type":"Polygon","coordinates":[[[-9.31104,38.78642],[-9.31051,38.78582],[-9.30806,38.78456],[-9.30758,38.78397],[-9.30707,38.78258],[-9.30659,38.78236],[-9.30662,38.78276],[-9.30785,38.78453],[-9.30916,38.78515],[-9.30955,38.78556],[-9.31079,38.78624],[-9.31089,38.78652],[-9.31124,38.78673],[-9.31131,38.78748],[-9.31217,38.78802],[-9.3135,38.7882],[-9.31358,38.78831],[-9.31343,38.78841],[-9.31366,38.78856],[-9.31397,38.78996],[-9.31319,38.7905],[-9.31321,38.79066],[-9.31395,38.79065],[-9.31455,38.79112],[-9.31475,38.79157],[-9.3151,38.79172],[-9.31525,38.79134],[-9.31497,38.7911],[-9.31468,38.78986],[-9.31405,38.78988],[-9.31415,38.78959],[-9.31445,38.78949],[-9.31477,38.78906],[-9.31463,38.78856],[-9.31419,38.78823],[-9.31262,38.78794],[-9.31232,38.78767],[-9.31208,38.78769],[-9.31179,38.78725],[-9.31137,38.78741],[-9.31127,38.78711],[-9.31138,38.78672],[-9.31104,38.78642]]]},"properties":{"ZAC":1,"ZA":0,"OBJECTID":36,"area_ha":4.41899529,"Shape.STArea()":44189.9396266,"Shape.STLength()":3141.550605183035,"Descricao":"Zonas ameaçadas pelas cheias"}},{"type":"Feature","id":37,"geometry":{"type":"Polygon","coordinates":[[[-9.30835,38.8026],[-9.30748,38.80363],[-9.30717,38.80367],[-9.30696,38.8044],[-9.30623,38.80499],[-9.3055,38.806],[-9.30413,38.80654],[-9.30298,38.80662],[-9.30258,38.80687],[-9.30242,38.8074],[-9.30324,38.80748],[-9.30372,38.80697],[-9.30478,38.80701],[-9.30518,38.80676],[-9.30558,38.80622],[-9.30601,38.80622],[-9.3082,38.8048],[-9.30862,38.80424],[-9.30856,38.80387],[-9.30887,38.80384],[-9.30927,38.80335],[-9.30922,38.80299],[-9.30835,38.8026]]]},"properties":{"ZAC":1,"ZA":0,"OBJECTID":37,"area_ha":6.35995287,"Shape.STArea()":63599.528650695,"Shape.STLength()":1827.8821492466311,"Descricao":"Zonas ameaçadas pelas cheias"}},{"type":"Feature","id":38,"geometry":{"type":"Polygon","coordinates":[[[-9.31252,38.79014],[-9.31251,38.79053],[-9.31177,38.7918],[-9.31177,38.79286],[-9.31211,38.7926],[-9.3124,38.79185],[-9.31282,38.79135],[-9.31252,38.79014]]]},"properties":{"ZAC":1,"ZA":0,"OBJECTID":38,"area_ha":1.21741068,"Shape.STArea()":12174.106817835,"Shape.STLength()":652.7215238394375,"Descricao":"Zonas ameaçadas pelas cheias"}},{"type":"Feature","id":39,"geometry":{"type":"Polygon","coordinates":[[[-9.31383,38.78936],[-9.31374,38.78981],[-9.31329,38.7899],[-9.31275,38.79028],[-9.31286,38.79078],[-9.31397,38.78996],[-9.31383,38.78936]]]},"properties":{"ZAC":1,"ZA":0,"OBJECTID":39,"area_ha":0.49891578,"Shape.STArea()":4989.157769835,"Shape.STLength()":419.6023463335746,"Descricao":"Zonas ameaçadas pelas cheias"}},{"type":"Feature","id":40,"geometry":{"type":"Polygon","coordinates":[[[-9.31394,38.79981],[-9.3149,38.80052],[-9.31584,38.80094],[-9.31518,38.80021],[-9.31414,38.79948],[-9.31414,38.79975],[-9.31394,38.79981]]]},"properties":{"ZAC":1,"ZA":0,"OBJECTID":40,"area_ha":0.63870644,"Shape.STArea()":6387.06439996,"Shape.STLength()":483.8150556279147,"Descricao":"Zonas ameaçadas pelas cheias"}},{"type":"Feature","id":41,"geometry":{"type":"Polygon","coordinates":[[[-9.31053,38.80144],[-9.31111,38.80127],[-9.31182,38.80138],[-9.31266,38.8028],[-9.31272,38.8009],[-9.31248,38.80109],[-9.31259,38.80147],[-9.31183,38.80106],[-9.31053,38.80144]]]},"properties":{"ZAC":1,"ZA":0,"OBJECTID":41,"area_ha":0.89326858,"Shape.STArea()":8932.68584727,"Shape.STLength()":797.4663573623402,"Descricao":"Zonas ameaçadas pelas cheias"}},{"type":"Feature","id":42,"geometry":{"type":"Polygon","coordinates":[[[-9.30775,38.77631],[-9.30773,38.77669],[-9.30701,38.77719],[-9.31063,38.77679],[-9.31077,38.77665],[-9.30944,38.77643],[-9.30844,38.77653],[-9.30775,38.77631]]]},"properties":{"ZAC":1,"ZA":0,"OBJECTID":42,"area_ha":1.2764584,"Shape.STArea()":12764.583954515,"Shape.STLength()":746.2268085076507,"Descricao":"Zonas ameaçadas pelas cheias"}},{"type":"Feature","id":43,"geometry":{"type":"Polygon","coordinates":[[[-9.35068,38.8354],[-9.3485,38.83428],[-9.34619,38.83333],[-9.33785,38.8312],[-9.33618,38.83061],[-9.33527,38.83013],[-9.33227,38.8278],[-9.33211,38.82782],[-9.33373,38.82953],[-9.33614,38.83164],[-9.33867,38.83468],[-9.34013,38.83604],[-9.34239,38.83686],[-9.34431,38.8381],[-9.34602,38.83896],[-9.34765,38.83898],[-9.34873,38.83829],[-9.34907,38.83763],[-9.3496,38.83724],[-9.35008,38.83723],[-9.35178,38.83768],[-9.3527,38.83837],[-9.35307,38.83903],[-9.354,38.83945],[-9.3538,38.83997],[-9.35404,38.84037],[-9.35404,38.84098],[-9.35433,38.84185],[-9.3545,38.84224],[-9.35541,38.84296],[-9.35546,38.84347],[-9.35575,38.84396],[-9.3554,38.84379],[-9.35526,38.84419],[-9.35348,38.84466],[-9.35349,38.84496],[-9.35295,38.84553],[-9.35295,38.84603],[-9.35379,38.84711],[-9.35391,38.84784],[-9.35342,38.84837],[-9.35235,38.84872],[-9.35142,38.84936],[-9.35161,38.85017],[-9.35198,38.8505],[-9.35411,38.85139],[-9.35458,38.85179],[-9.35478,38.8538],[-9.35462,38.85404],[-9.35125,38.8542],[-9.3508,38.85434],[-9.35045,38.85448],[-9.34976,38.85536],[-9.34923,38.85564],[-9.34946,38.85686],[-9.35042,38.85804],[-9.35047,38.85869],[-9.35014,38.85949],[-9.34925,38.86053],[-9.3472,38.86157],[-9.34711,38.8625],[-9.34648,38.86325],[-9.34515,38.86438],[-9.34442,38.86546],[-9.34405,38.86673],[-9.3439,38.86815],[-9.34352,38.86898],[-9.34127,38.87174],[-9.33955,38.87297],[-9.33861,38.87394],[-9.3384,38.87506],[-9.33763,38.87737],[-9.33761,38.87942],[-9.338,38.88106],[-9.3378,38.88357],[-9.33862,38.88358],[-9.33878,38.88306],[-9.33868,38.88131],[-9.33851,38.88051],[-9.33825,38.88022],[-9.33821,38.87822],[-9.33925,38.87525],[-9.33928,38.87416],[-9.33974,38.87336],[-9.34045,38.87273],[-9.34109,38.87243],[-9.34189,38.87131],[-9.34419,38.86894],[-9.34458,38.86809],[-9.3446,38.86585],[-9.34493,38.86513],[-9.34714,38.86329],[-9.34773,38.86185],[-9.34814,38.86141],[-9.34947,38.86087],[-9.35043,38.86003],[-9.35099,38.85923],[-9.35095,38.85855],[-9.34986,38.85616],[-9.35004,38.8555],[-9.35048,38.85496],[-9.35138,38.85451],[-9.35512,38.85452],[-9.35555,38.8542],[-9.35493,38.85229],[-9.35494,38.85161],[-9.35377,38.85087],[-9.35211,38.8502],[-9.35174,38.84936],[-9.35247,38.84895],[-9.35359,38.84865],[-9.35416,38.84817],[-9.35427,38.84784],[-9.35417,38.84741],[-9.35329,38.84601],[-9.35312,38.84598],[-9.35311,38.84564],[-9.35352,38.84514],[-9.35497,38.8448],[-9.35594,38.84438],[-9.35596,38.84339],[-9.3557,38.84355],[-9.3555,38.84279],[-9.35468,38.84213],[-9.35431,38.84117],[-9.35424,38.84028],[-9.35406,38.8399],[-9.35421,38.83949],[-9.35344,38.83881],[-9.35318,38.83828],[-9.35323,38.83767],[-9.35183,38.83607],[-9.35068,38.8354]]]},"properties":{"ZAC":1,"ZA":0,"OBJECTID":43,"area_ha":89.068519,"Shape.STArea()":890685.190007375,"Shape.STLength()":17659.582990813768,"Descricao":"Zonas ameaçadas pelas cheias"}},{"type":"Feature","id":44,"geometry":{"type":"Polygon","coordinates":[[[-9.28845,38.83317],[-9.29076,38.8327],[-9.29285,38.83179],[-9.29288,38.83155],[-9.29353,38.83117],[-9.29382,38.83042],[-9.29428,38.83016],[-9.29667,38.82997],[-9.29849,38.82935],[-9.29907,38.82959],[-9.29936,38.83032],[-9.29978,38.83047],[-9.30003,38.8304],[-9.30043,38.82978],[-9.3009,38.82981],[-9.30146,38.82954],[-9.30248,38.82937],[-9.30313,38.82898],[-9.30464,38.82758],[-9.30514,38.82689],[-9.30625,38.82444],[-9.30834,38.82358],[-9.30957,38.82221],[-9.31063,38.82144],[-9.31282,38.82052],[-9.31346,38.82043],[-9.31426,38.82059],[-9.31524,38.82036],[-9.31559,38.82012],[-9.31791,38.82015],[-9.3205,38.81997],[-9.32062,38.81955],[-9.32193,38.81935],[-9.32203,38.8196],[-9.32295,38.8197],[-9.3238,38.82022],[-9.32515,38.82016],[-9.32548,38.82029],[-9.32612,38.82093],[-9.32666,38.82112],[-9.32687,38.82151],[-9.32773,38.82219],[-9.3289,38.82256],[-9.33096,38.82372],[-9.33122,38.82506],[-9.33119,38.82526],[-9.33078,38.82546],[-9.33065,38.82607],[-9.33102,38.82651],[-9.33125,38.82716],[-9.33192,38.82766],[-9.33127,38.82683],[-9.33179,38.82508],[-9.33108,38.82362],[-9.32897,38.82244],[-9.32805,38.8222],[-9.32701,38.82144],[-9.32679,38.82102],[-9.32625,38.82084],[-9.32559,38.82018],[-9.32519,38.82003],[-9.32387,38.82009],[-9.32299,38.81956],[-9.32218,38.81951],[-9.32212,38.81926],[-9.32194,38.81922],[-9.32056,38.8195],[-9.32046,38.81991],[-9.31556,38.82007],[-9.31496,38.82031],[-9.31415,38.82007],[-9.3137,38.82045],[-9.31275,38.82046],[-9.31056,38.82139],[-9.30908,38.82253],[-9.30831,38.82346],[-9.30612,38.8244],[-9.30521,38.82636],[-9.30458,38.82715],[-9.30194,38.82805],[-9.30064,38.82927],[-9.29992,38.82896],[-9.29928,38.82889],[-9.29666,38.82989],[-9.29426,38.83012],[-9.29372,38.83037],[-9.29345,38.83112],[-9.29302,38.83131],[-9.2927,38.83175],[-9.29073,38.83265],[-9.28939,38.83281],[-9.28903,38.83302],[-9.28843,38.83303],[-9.28845,38.83317]]]},"properties":{"ZAC":1,"ZA":0,"OBJECTID":44,"area_ha":12.65742208,"Shape.STArea()":126574.220824675,"Shape.STLength()":10430.74581081866,"Descricao":"Zonas ameaçadas pelas cheias"}},{"type":"Feature","id":45,"geometry":{"type":"MultiPolygon","coordinates":[[[[-9.37385,38.80876],[-9.37418,38.80886],[-9.37401,38.80813],[-9.37506,38.80681],[-9.37471,38.80641],[-9.37369,38.80766],[-9.3735,38.8087],[-9.37359,38.80884],[-9.37385,38.80876]]],[[[-9.37383,38.8089],[-9.37361,38.80903],[-9.3736,38.80939],[-9.374,38.80936],[-9.37383,38.8089]]],[[[-9.37751,38.81585],[-9.37793,38.81582],[-9.38009,38.81457],[-9.38233,38.81375],[-9.38416,38.81345],[-9.38495,38.81369],[-9.38533,38.81318],[-9.38641,38.8126],[-9.38788,38.813],[-9.38956,38.81318],[-9.39079,38.81282],[-9.39138,38.81319],[-9.3916,38.81282],[-9.39134,38.81243],[-9.39162,38.81234],[-9.39161,38.81212],[-9.39195,38.81184],[-9.39285,38.81159],[-9.39319,38.81125],[-9.39326,38.81078],[-9.39381,38.81015],[-9.39425,38.80911],[-9.39407,38.80872],[-9.39421,38.80828],[-9.3949,38.8075],[-9.39657,38.80676],[-9.39942,38.80581],[-9.40028,38.80515],[-9.40151,38.80523],[-9.40177,38.8054],[-9.40132,38.80612],[-9.4014,38.80698],[-9.40084,38.80738],[-9.40092,38.80767],[-9.40041,38.80778],[-9.40056,38.80835],[-9.40115,38.80875],[-9.40143,38.8075],[-9.4019,38.80705],[-9.40181,38.8068],[-9.40208,38.80635],[-9.40208,38.80598],[-9.40296,38.80523],[-9.4028,38.80472],[-9.4031,38.80419],[-9.40274,38.80395],[-9.40269,38.80371],[-9.40419,38.80318],[-9.40539,38.80252],[-9.4054,38.80225],[-9.40507,38.80208],[-9.40378,38.80243],[-9.40183,38.80346],[-9.40111,38.80353],[-9.4006,38.80412],[-9.4003,38.80401],[-9.3995,38.8041],[-9.39843,38.80386],[-9.39745,38.80294],[-9.3964,38.8026],[-9.39692,38.80297],[-9.39744,38.80368],[-9.39902,38.80468],[-9.39901,38.80515],[-9.3987,38.80541],[-9.39732,38.80577],[-9.39417,38.80745],[-9.39312,38.8085],[-9.39271,38.80959],[-9.39152,38.81074],[-9.39065,38.81086],[-9.39038,38.81134],[-9.38974,38.81172],[-9.3877,38.812],[-9.38674,38.81232],[-9.38632,38.81219],[-9.38415,38.81307],[-9.38295,38.81298],[-9.38126,38.81365],[-9.3801,38.81354],[-9.37887,38.81439],[-9.37892,38.81449],[-9.37841,38.81465],[-9.37812,38.81439],[-9.37632,38.81434],[-9.37443,38.81356],[-9.3741,38.81314],[-9.37436,38.81201],[-9.37366,38.81059],[-9.37385,38.81038],[-9.37374,38.80977],[-9.3736,38.80987],[-9.3737,38.81035],[-9.37322,38.81055],[-9.37248,38.81012],[-9.37171,38.81002],[-9.37142,38.80964],[-9.37073,38.80957],[-9.37017,38.80909],[-9.3694,38.80904],[-9.36886,38.80881],[-9.36861,38.80884],[-9.36834,38.8091],[-9.36615,38.80876],[-9.36566,38.80887],[-9.36589,38.80914],[-9.36597,38.8096],[-9.36659,38.8098],[-9.36827,38.80937],[-9.36864,38.80977],[-9.36898,38.80974],[-9.36961,38.80931],[-9.37007,38.8092],[-9.37069,38.80972],[-9.37124,38.80988],[-9.37183,38.81031],[-9.37191,38.8102],[-9.37228,38.81035],[-9.37274,38.81075],[-9.37272,38.81098],[-9.37324,38.81088],[-9.37346,38.81117],[-9.37324,38.81207],[-9.3736,38.81255],[-9.37349,38.81318],[-9.37359,38.81378],[-9.37603,38.81473],[-9.37683,38.81516],[-9.37732,38.81585],[-9.37751,38.81585]]],[[[-9.46968,38.82527],[-9.47024,38.82643],[-9.4712,38.82522],[-9.47183,38.82511],[-9.47024,38.82393],[-9.46912,38.82347],[-9.46841,38.82338],[-9.46832,38.82311],[-9.46702,38.82226],[-9.46648,38.82159],[-9.46672,38.82043],[-9.46731,38.81951],[-9.46727,38.81899],[-9.46689,38.81845],[-9.4674,38.81807],[-9.46786,38.81718],[-9.46739,38.81634],[-9.46715,38.81455],[-9.46644,38.81444],[-9.46572,38.81343],[-9.46407,38.81295],[-9.46297,38.81164],[-9.46225,38.81007],[-9.46162,38.80919],[-9.46064,38.80863],[-9.45926,38.80732],[-9.45609,38.80544],[-9.455,38.80433],[-9.45159,38.80366],[-9.45143,38.80293],[-9.45284,38.8022],[-9.45281,38.80198],[-9.45,38.80211],[-9.44837,38.80163],[-9.44697,38.80039],[-9.4448,38.79955],[-9.44455,38.79888],[-9.44319,38.79862],[-9.44262,38.79829],[-9.44147,38.79804],[-9.43923,38.79799],[-9.43797,38.79727],[-9.43808,38.7971],[-9.43759,38.79672],[-9.43686,38.79657],[-9.43613,38.79669],[-9.43589,38.79703],[-9.43599,38.7978],[-9.43624,38.79823],[-9.43601,38.79851],[-9.43605,38.79883],[-9.43638,38.79977],[-9.43616,38.8003],[-9.43544,38.80073],[-9.43455,38.80097],[-9.43277,38.80261],[-9.43128,38.80296],[-9.43086,38.80334],[-9.42972,38.8035],[-9.42835,38.80252],[-9.42706,38.80182],[-9.42638,38.80164],[-9.42602,38.80134],[-9.42497,38.79988],[-9.42423,38.79943],[-9.42408,38.79918],[-9.42444,38.79797],[-9.42416,38.79808],[-9.4239,38.79853],[-9.42361,38.7986],[-9.42165,38.79803],[-9.41973,38.79718],[-9.41791,38.79709],[-9.41666,38.7973],[-9.4163,38.79698],[-9.41557,38.79742],[-9.41441,38.79763],[-9.41437,38.79799],[-9.41036,38.79863],[-9.41004,38.79904],[-9.40743,38.80049],[-9.40682,38.80122],[-9.40579,38.80153],[-9.40533,38.80196],[-9.40568,38.80228],[-9.40593,38.80226],[-9.40871,38.80083],[-9.41017,38.80038],[-9.41062,38.79961],[-9.41373,38.7984],[-9.41652,38.79832],[-9.4178,38.79797],[-9.41899,38.79785],[-9.42121,38.79851],[-9.42318,38.7997],[-9.42415,38.80052],[-9.42456,38.80141],[-9.42486,38.80166],[-9.42489,38.80193],[-9.42576,38.80234],[-9.42663,38.80247],[-9.4278,38.80351],[-9.4287,38.80391],[-9.42914,38.80427],[-9.42997,38.80449],[-9.43193,38.80373],[-9.43185,38.80362],[-9.43372,38.80253],[-9.43465,38.80144],[-9.43639,38.80067],[-9.43706,38.79973],[-9.43665,38.79896],[-9.4364,38.79899],[-9.43636,38.79869],[-9.43649,38.79885],[-9.43761,38.79868],[-9.43911,38.7994],[-9.44151,38.79964],[-9.4424,38.80075],[-9.4435,38.80135],[-9.44465,38.80166],[-9.44549,38.80269],[-9.44668,38.80364],[-9.44667,38.80393],[-9.44565,38.80472],[-9.44523,38.80481],[-9.44445,38.80535],[-9.44308,38.80535],[-9.44287,38.80564],[-9.44337,38.80542],[-9.44476,38.80562],[-9.44556,38.80554],[-9.44819,38.80604],[-9.4492,38.80607],[-9.4495,38.80618],[-9.44949,38.80634],[-9.45031,38.80645],[-9.45054,38.80619],[-9.45091,38.80614],[-9.45146,38.80647],[-9.45262,38.80643],[-9.45368,38.80709],[-9.45422,38.80722],[-9.45445,38.8076],[-9.45484,38.80783],[-9.45594,38.80821],[-9.45642,38.80879],[-9.45759,38.8091],[-9.45786,38.80952],[-9.4573,38.81074],[-9.45777,38.81121],[-9.45874,38.8115],[-9.45956,38.81252],[-9.46105,38.81328],[-9.46179,38.81337],[-9.46268,38.81411],[-9.46291,38.81456],[-9.46386,38.81432],[-9.46544,38.81551],[-9.46623,38.81646],[-9.46612,38.81676],[-9.46633,38.81766],[-9.46496,38.81787],[-9.4653,38.81833],[-9.46585,38.81841],[-9.46586,38.81857],[-9.46636,38.81847],[-9.46536,38.82038],[-9.46541,38.82144],[-9.46582,38.82236],[-9.46633,38.82297],[-9.46748,38.82339],[-9.46794,38.82382],[-9.46855,38.82405],[-9.46968,38.82527]]]]},"properties":{"ZAC":1,"ZA":1,"OBJECTID":45,"area_ha":178.69307283,"Shape.STArea()":1786930.731941685,"Shape.STLength()":31478.07206919995,"Descricao":"Zonas ameaçadas pelas cheias"}},{"type":"Feature","id":46,"geometry":{"type":"MultiPolygon","coordinates":[[[[-9.26396,38.74099],[-9.26307,38.74191],[-9.26324,38.74283],[-9.26363,38.74313],[-9.26326,38.74204],[-9.26426,38.74103],[-9.26396,38.74099]]],[[[-9.25124,38.75303],[-9.25105,38.75347],[-9.25001,38.75418],[-9.24826,38.75642],[-9.24892,38.75648],[-9.24935,38.75591],[-9.25122,38.75452],[-9.25106,38.75428],[-9.2513,38.754],[-9.2517,38.75388],[-9.2519,38.75354],[-9.25323,38.75282],[-9.25306,38.75274],[-9.25318,38.75245],[-9.25294,38.75231],[-9.25301,38.7516],[-9.25336,38.75087],[-9.25435,38.75051],[-9.25366,38.7505],[-9.2555,38.75038],[-9.25562,38.75002],[-9.25595,38.74989],[-9.25601,38.74947],[-9.25581,38.74937],[-9.25617,38.74899],[-9.25869,38.74818],[-9.25922,38.74834],[-9.25958,38.74862],[-9.25997,38.75023],[-9.25955,38.75096],[-9.25933,38.75092],[-9.25875,38.75161],[-9.25914,38.75222],[-9.25937,38.75192],[-9.26006,38.75192],[-9.25992,38.75138],[-9.26021,38.75101],[-9.26072,38.75083],[-9.26071,38.75056],[-9.26043,38.75047],[-9.26087,38.75061],[-9.26123,38.75098],[-9.26136,38.75086],[-9.26056,38.7496],[-9.26036,38.74866],[-9.26045,38.74803],[-9.26019,38.74797],[-9.26018,38.74781],[-9.26056,38.74746],[-9.26013,38.74743],[-9.26017,38.74717],[-9.2607,38.74663],[-9.26313,38.74507],[-9.26465,38.74436],[-9.26504,38.74391],[-9.26471,38.74376],[-9.26487,38.74398],[-9.26448,38.74432],[-9.26265,38.74519],[-9.25958,38.74743],[-9.25864,38.74748],[-9.25729,38.74786],[-9.2566,38.74825],[-9.25502,38.74876],[-9.25494,38.74912],[-9.25252,38.74938],[-9.25213,38.74975],[-9.25218,38.75002],[-9.25261,38.75048],[-9.25233,38.7504],[-9.25207,38.75066],[-9.25177,38.75182],[-9.25158,38.75195],[-9.25124,38.75303]]],[[[-9.2591,38.75859],[-9.25903,38.75908],[-9.25938,38.75912],[-9.25967,38.75803],[-9.25955,38.7574],[-9.25934,38.75739],[-9.25967,38.75686],[-9.25962,38.75473],[-9.26027,38.75431],[-9.25957,38.75413],[-9.25936,38.75318],[-9.25883,38.75206],[-9.25851,38.75234],[-9.2584,38.75354],[-9.25891,38.75658],[-9.25891,38.75769],[-9.25841,38.75812],[-9.25871,38.7583],[-9.25869,38.75802],[-9.25891,38.75802],[-9.25891,38.75853],[-9.25854,38.7586],[-9.25869,38.75862],[-9.25883,38.75893],[-9.25892,38.75861],[-9.2591,38.75859]]],[[[-9.24888,38.75735],[-9.24937,38.75771],[-9.24961,38.75874],[-9.24937,38.75943],[-9.24983,38.75982],[-9.24988,38.76056],[-9.24999,38.76012],[-9.24955,38.7593],[-9.24979,38.75873],[-9.24983,38.7581],[-9.2488,38.75703],[-9.2488,38.75654],[-9.24856,38.75651],[-9.24829,38.75724],[-9.24888,38.75735]]],[[[-9.25804,38.76451],[-9.25838,38.76441],[-9.25803,38.76294],[-9.25755,38.76187],[-9.25755,38.76142],[-9.25922,38.75962],[-9.25791,38.75929],[-9.25775,38.76017],[-9.25717,38.76094],[-9.25687,38.76214],[-9.25742,38.76239],[-9.25804,38.76412],[-9.25804,38.76451]]],[[[-9.25063,38.76662],[-9.25086,38.76663],[-9.2513,38.76613],[-9.25184,38.76441],[-9.2514,38.76226],[-9.25035,38.76102],[-9.25013,38.76112],[-9.25135,38.76235],[-9.25109,38.76319],[-9.25158,38.76419],[-9.25101,38.76535],[-9.25101,38.7661],[-9.25063,38.76662]]],[[[-9.24448,38.79144],[-9.24436,38.79186],[-9.24451,38.79239],[-9.24463,38.79181],[-9.24447,38.79148],[-9.24493,38.78966],[-9.2447,38.78888],[-9.24493,38.78794],[-9.24451,38.78674],[-9.24445,38.7856],[-9.2454,38.78438],[-9.24551,38.78337],[-9.24595,38.78309],[-9.24608,38.78276],[-9.24686,38.7828],[-9.24698,38.78248],[-9.24663,38.78239],[-9.24665,38.78215],[-9.24725,38.78159],[-9.24781,38.78152],[-9.24825,38.78122],[-9.24818,38.78111],[-9.24867,38.78091],[-9.2493,38.78094],[-9.2495,38.78112],[-9.24989,38.78091],[-9.25003,38.7804],[-9.24965,38.77984],[-9.24983,38.77886],[-9.2502,38.77867],[-9.25047,38.77809],[-9.25048,38.77764],[-9.25079,38.77721],[-9.25165,38.77666],[-9.2516,38.77652],[-9.25179,38.77647],[-9.25257,38.77541],[-9.25255,38.77451],[-9.25244,38.77448],[-9.25262,38.77367],[-9.25295,38.77308],[-9.25271,38.773],[-9.25239,38.77403],[-9.25249,38.77543],[-9.25142,38.77677],[-9.25056,38.77737],[-9.25038,38.77805],[-9.24967,38.77894],[-9.24952,38.77951],[-9.2492,38.77953],[-9.24847,38.78046],[-9.24686,38.7815],[-9.24644,38.78257],[-9.24502,38.78345],[-9.24478,38.78398],[-9.24495,38.78455],[-9.24482,38.78493],[-9.24454,38.78504],[-9.24416,38.78494],[-9.24422,38.78566],[-9.24401,38.78625],[-9.24432,38.78689],[-9.24421,38.78743],[-9.24456,38.78784],[-9.24448,38.78891],[-9.24465,38.78931],[-9.24441,38.79042],[-9.24448,38.79144]]],[[[-9.24267,38.80497],[-9.24238,38.80604],[-9.24237,38.80627],[-9.24251,38.8063],[-9.24288,38.80518],[-9.24318,38.80495],[-9.24308,38.80448],[-9.24263,38.80374],[-9.24272,38.80334],[-9.24254,38.80309],[-9.24193,38.80241],[-9.24101,38.80198],[-9.2408,38.8004],[-9.24144,38.79725],[-9.24347,38.79623],[-9.24536,38.79636],[-9.24497,38.7955],[-9.24538,38.79519],[-9.24508,38.79479],[-9.24519,38.79413],[-9.24467,38.79341],[-9.24485,38.79262],[-9.24469,38.79242],[-9.24444,38.79246],[-9.24426,38.79325],[-9.24444,38.79388],[-9.2443,38.79483],[-9.24376,38.79538],[-9.24361,38.79584],[-9.24275,38.79622],[-9.24172,38.79612],[-9.24079,38.79646],[-9.24064,38.79775],[-9.24086,38.79846],[-9.24078,38.79902],[-9.24007,38.80014],[-9.24003,38.80166],[-9.24111,38.80266],[-9.24128,38.80308],[-9.24187,38.80322],[-9.24206,38.80372],[-9.24236,38.80384],[-9.24252,38.80423],[-9.24272,38.80426],[-9.24284,38.80446],[-9.24267,38.80497]]],[[[-9.24116,38.80783],[-9.24095,38.80864],[-9.24112,38.80867],[-9.24176,38.80791],[-9.24252,38.80784],[-9.24295,38.80745],[-9.24296,38.80722],[-9.24253,38.80693],[-9.24248,38.8064],[-9.24206,38.80655],[-9.24137,38.80732],[-9.24116,38.80783]]],[[[-9.23977,38.80944],[-9.24026,38.80945],[-9.2409,38.80884],[-9.24123,38.80896],[-9.24131,38.80874],[-9.24082,38.80865],[-9.23977,38.80944]]],[[[-9.23889,38.81014],[-9.23882,38.81045],[-9.23967,38.80981],[-9.23962,38.80954],[-9.23927,38.80999],[-9.23889,38.81014]]],[[[-9.26468,38.80724],[-9.26423,38.80848],[-9.26556,38.80992],[-9.26553,38.81037],[-9.26567,38.81048],[-9.2659,38.80984],[-9.26531,38.80928],[-9.26498,38.80834],[-9.26535,38.80794],[-9.26534,38.80724],[-9.26505,38.80666],[-9.2654,38.80609],[-9.2649,38.80541],[-9.26486,38.8048],[-9.26555,38.80345],[-9.26603,38.80324],[-9.26676,38.80335],[-9.26688,38.80296],[-9.2665,38.80263],[-9.26646,38.80238],[-9.26676,38.80188],[-9.26716,38.80187],[-9.26732,38.80205],[-9.26772,38.80149],[-9.26771,38.80121],[-9.26733,38.80067],[-9.26712,38.79911],[-9.26675,38.79919],[-9.26703,38.79861],[-9.26695,38.79703],[-9.26529,38.79645],[-9.26492,38.79547],[-9.26496,38.79416],[-9.26451,38.79221],[-9.26454,38.7915],[-9.26394,38.78997],[-9.26387,38.78867],[-9.26338,38.78773],[-9.26285,38.78719],[-9.26275,38.78684],[-9.26178,38.78619],[-9.26169,38.78583],[-9.26195,38.78475],[-9.26175,38.78413],[-9.2604,38.78274],[-9.26054,38.78209],[-9.26045,38.78103],[-9.2614,38.7799],[-9.2614,38.7795],[-9.26109,38.77906],[-9.26111,38.77864],[-9.26133,38.77836],[-9.26119,38.77821],[-9.26137,38.77801],[-9.26139,38.77752],[-9.26179,38.77735],[-9.26258,38.77624],[-9.26365,38.77598],[-9.26451,38.77604],[-9.26455,38.7762],[-9.26429,38.77621],[-9.26435,38.77644],[-9.26508,38.77663],[-9.26554,38.77813],[-9.26591,38.77879],[-9.2672,38.78057],[-9.26783,38.78086],[-9.26803,38.7817],[-9.26891,38.78171],[-9.26933,38.78196],[-9.27023,38.78208],[-9.27062,38.7824],[-9.27087,38.78323],[-9.27115,38.78349],[-9.2715,38.7844],[-9.27143,38.78513],[-9.27159,38.78595],[-9.27225,38.78784],[-9.27236,38.78891],[-9.27272,38.78967],[-9.27254,38.79187],[-9.27312,38.79365],[-9.27305,38.79394],[-9.27361,38.79494],[-9.2737,38.79572],[-9.27395,38.79618],[-9.27445,38.79659],[-9.27443,38.79696],[-9.27463,38.79718],[-9.27575,38.79718],[-9.27633,38.79733],[-9.27622,38.79749],[-9.27936,38.79777],[-9.27959,38.7981],[-9.2796,38.7985],[-9.27939,38.79875],[-9.27929,38.79932],[-9.27881,38.8002],[-9.27926,38.80037],[-9.27855,38.80035],[-9.27857,38.80083],[-9.27832,38.80142],[-9.27835,38.80211],[-9.27784,38.80248],[-9.27848,38.8027],[-9.27873,38.80294],[-9.27863,38.80339],[-9.27826,38.80349],[-9.27832,38.80363],[-9.27872,38.80358],[-9.27881,38.80324],[-9.27911,38.80311],[-9.279,38.80178],[-9.27968,38.80049],[-9.27957,38.80038],[-9.27978,38.79951],[-9.27971,38.79894],[-9.27994,38.79852],[-9.27976,38.79848],[-9.27976,38.79819],[-9.28002,38.79792],[-9.27946,38.79743],[-9.279,38.79733],[-9.27848,38.79655],[-9.27824,38.79655],[-9.27781,38.79696],[-9.27673,38.79696],[-9.27652,38.79714],[-9.27634,38.79693],[-9.27596,38.79702],[-9.27542,38.79691],[-9.27407,38.79607],[-9.27317,38.79384],[-9.27329,38.79324],[-9.27316,38.79267],[-9.27272,38.79206],[-9.27312,38.79028],[-9.2731,38.78979],[-9.27224,38.78756],[-9.27202,38.78654],[-9.27164,38.78582],[-9.27153,38.78526],[-9.27169,38.78447],[-9.271,38.78307],[-9.27072,38.78208],[-9.2705,38.7817],[-9.26919,38.78126],[-9.26871,38.78074],[-9.26772,38.78021],[-9.26696,38.77959],[-9.26613,38.77855],[-9.26613,38.77818],[-9.26568,38.77694],[-9.26568,38.77645],[-9.26554,38.77639],[-9.26583,38.77648],[-9.26586,38.77631],[-9.26608,38.77623],[-9.26638,38.77634],[-9.26725,38.77606],[-9.26851,38.7763],[-9.27032,38.77631],[-9.27045,38.77616],[-9.27074,38.77637],[-9.27181,38.77563],[-9.2724,38.77547],[-9.2728,38.77554],[-9.27276,38.77507],[-9.27239,38.77487],[-9.2714,38.77489],[-9.27081,38.77585],[-9.26973,38.77617],[-9.26789,38.77613],[-9.26712,38.77596],[-9.26714,38.77574],[-9.26666,38.77564],[-9.26635,38.77575],[-9.26552,38.77541],[-9.26514,38.77492],[-9.26523,38.77463],[-9.26483,38.77413],[-9.26416,38.77437],[-9.26318,38.77352],[-9.26246,38.7732],[-9.25999,38.76951],[-9.25979,38.76903],[-9.25986,38.76882],[-9.25929,38.7676],[-9.2587,38.76641],[-9.25822,38.76597],[-9.25835,38.76455],[-9.25799,38.76455],[-9.2578,38.76487],[-9.25796,38.76522],[-9.2579,38.76593],[-9.25846,38.76713],[-9.259,38.7678],[-9.25968,38.76963],[-9.25955,38.76984],[-9.26112,38.77183],[-9.26141,38.77244],[-9.26123,38.77319],[-9.25989,38.77564],[-9.2602,38.77644],[-9.26014,38.77694],[-9.26034,38.77697],[-9.26021,38.77746],[-9.26038,38.77749],[-9.26062,38.778],[-9.26041,38.77898],[-9.26056,38.78013],[-9.26016,38.78039],[-9.25971,38.7824],[-9.26033,38.78506],[-9.26001,38.78588],[-9.26013,38.78606],[-9.26077,38.78579],[-9.26105,38.78656],[-9.26211,38.78695],[-9.26252,38.78767],[-9.26314,38.78816],[-9.26365,38.7894],[-9.26353,38.79152],[-9.2638,38.79218],[-9.26317,38.79272],[-9.26395,38.79303],[-9.26413,38.79325],[-9.26457,38.79434],[-9.26466,38.7955],[-9.26504,38.79659],[-9.26566,38.79692],[-9.26682,38.79718],[-9.26685,38.79784],[-9.26659,38.79842],[-9.26671,38.79886],[-9.26656,38.79911],[-9.26672,38.79921],[-9.26625,38.79945],[-9.26736,38.80142],[-9.26639,38.80176],[-9.26605,38.80253],[-9.26609,38.80282],[-9.26635,38.80307],[-9.26572,38.80312],[-9.26535,38.80336],[-9.26461,38.80467],[-9.26459,38.80499],[-9.26497,38.80574],[-9.26488,38.80687],[-9.26468,38.80724]],[[-9.26507,38.77646],[-9.26518,38.77642],[-9.26533,38.77655],[-9.26507,38.77646]],[[-9.26551,38.77645],[-9.26551,38.77643],[-9.26554,38.77645],[-9.26551,38.77645]]],[[[-9.26415,38.81096],[-9.26352,38.81122],[-9.26428,38.81146],[-9.26471,38.81133],[-9.26475,38.81107],[-9.26415,38.81096]]],[[[-9.23793,38.8152],[-9.23816,38.81586],[-9.23802,38.81591],[-9.23822,38.81609],[-9.23846,38.81582],[-9.23836,38.81566],[-9.23864,38.8154],[-9.23782,38.81512],[-9.23793,38.8152]]]]},"properties":{"ZAC":1,"ZA":1,"OBJECTID":46,"area_ha":106.68914675,"Shape.STArea()":1066891.466479635,"Shape.STLength()":46123.85264842458,"Descricao":"Zonas ameaçadas pelas cheias"}},{"type":"Feature","id":47,"geometry":{"type":"MultiPolygon","coordinates":[[[[-9.34084,38.76571],[-9.34082,38.76599],[-9.34125,38.76631],[-9.34122,38.76668],[-9.34146,38.76626],[-9.34111,38.76589],[-9.34089,38.76505],[-9.34053,38.76451],[-9.34056,38.76414],[-9.33996,38.76379],[-9.33997,38.76406],[-9.3404,38.76464],[-9.34029,38.76481],[-9.34046,38.76532],[-9.34084,38.76571]]],[[[-9.32638,38.77808],[-9.32709,38.77825],[-9.32715,38.77807],[-9.32664,38.7774],[-9.3265,38.77757],[-9.32653,38.77725],[-9.32616,38.77728],[-9.32646,38.77702],[-9.32601,38.77674],[-9.32632,38.77577],[-9.32651,38.77569],[-9.32679,38.7745],[-9.32699,38.7742],[-9.32729,38.77409],[-9.32733,38.77387],[-9.32811,38.77384],[-9.3274,38.77365],[-9.32741,38.77253],[-9.3278,38.7718],[-9.32775,38.77116],[-9.32978,38.76968],[-9.32987,38.76934],[-9.33048,38.76901],[-9.33085,38.7684],[-9.33193,38.76781],[-9.33167,38.76711],[-9.33199,38.7662],[-9.33206,38.76533],[-9.3308,38.76494],[-9.3305,38.76467],[-9.33139,38.76414],[-9.3314,38.76433],[-9.33188,38.7647],[-9.33224,38.7647],[-9.33218,38.76435],[-9.33239,38.76411],[-9.33218,38.764],[-9.33208,38.76356],[-9.33243,38.76349],[-9.33228,38.76244],[-9.33267,38.76163],[-9.33514,38.76158],[-9.33582,38.76144],[-9.33696,38.76156],[-9.33741,38.76177],[-9.33756,38.76234],[-9.33845,38.76267],[-9.33833,38.76297],[-9.3388,38.76298],[-9.33913,38.7632],[-9.3394,38.76369],[-9.33988,38.7638],[-9.34045,38.76351],[-9.34002,38.76311],[-9.3395,38.76317],[-9.33943,38.76302],[-9.33969,38.7629],[-9.33955,38.76264],[-9.33819,38.76169],[-9.33752,38.76089],[-9.33714,38.76073],[-9.33632,38.76057],[-9.33473,38.76093],[-9.33295,38.76075],[-9.33215,38.76107],[-9.3317,38.76084],[-9.33106,38.76022],[-9.33121,38.75971],[-9.33175,38.75971],[-9.33128,38.75942],[-9.33116,38.75877],[-9.33129,38.75854],[-9.33082,38.75813],[-9.33077,38.75778],[-9.33142,38.75768],[-9.33227,38.75778],[-9.33332,38.75735],[-9.33359,38.75695],[-9.33486,38.75686],[-9.33544,38.75651],[-9.33628,38.75633],[-9.33668,38.75611],[-9.33658,38.75601],[-9.33753,38.75568],[-9.33813,38.75508],[-9.33818,38.75458],[-9.33838,38.7544],[-9.34031,38.75376],[-9.34102,38.75328],[-9.33999,38.75372],[-9.33849,38.75397],[-9.33811,38.7542],[-9.33792,38.75503],[-9.33736,38.75553],[-9.33636,38.75578],[-9.336,38.7561],[-9.33523,38.75617],[-9.33479,38.75651],[-9.33362,38.75658],[-9.33297,38.75699],[-9.33202,38.75716],[-9.33058,38.75718],[-9.32935,38.75701],[-9.3283,38.75616],[-9.32737,38.75571],[-9.32703,38.75525],[-9.32697,38.7549],[-9.32696,38.75335],[-9.32748,38.75296],[-9.32832,38.75179],[-9.32869,38.7517],[-9.32854,38.75117],[-9.32815,38.75097],[-9.32795,38.75063],[-9.32717,38.7503],[-9.32671,38.74946],[-9.3257,38.74839],[-9.32525,38.74826],[-9.3247,38.74846],[-9.32411,38.74834],[-9.3239,38.74788],[-9.32439,38.74696],[-9.3245,38.7462],[-9.32389,38.74537],[-9.3221,38.74427],[-9.3221,38.74361],[-9.32193,38.74328],[-9.32065,38.74182],[-9.32064,38.74075],[-9.32041,38.7409],[-9.32067,38.7425],[-9.32177,38.7436],[-9.32176,38.74406],[-9.32197,38.74416],[-9.32168,38.74438],[-9.32195,38.74486],[-9.32297,38.74567],[-9.32351,38.74571],[-9.32366,38.74767],[-9.32402,38.74842],[-9.3246,38.74868],[-9.32544,38.74877],[-9.32619,38.74982],[-9.32667,38.74971],[-9.32685,38.75015],[-9.32668,38.75051],[-9.32744,38.75145],[-9.32682,38.75192],[-9.32626,38.75273],[-9.32601,38.7538],[-9.32628,38.75526],[-9.32577,38.75568],[-9.32598,38.75561],[-9.32706,38.75626],[-9.32783,38.75749],[-9.32783,38.75833],[-9.32663,38.75973],[-9.32471,38.76105],[-9.32665,38.76043],[-9.3278,38.75929],[-9.32801,38.7592],[-9.32802,38.75937],[-9.32829,38.75885],[-9.32965,38.75814],[-9.32962,38.75831],[-9.33074,38.75887],[-9.33069,38.75963],[-9.33081,38.75972],[-9.33046,38.76141],[-9.33086,38.76166],[-9.33106,38.76197],[-9.33095,38.76215],[-9.33115,38.76215],[-9.33129,38.76248],[-9.33119,38.76252],[-9.33138,38.76309],[-9.33121,38.76343],[-9.32972,38.76391],[-9.32953,38.76432],[-9.32952,38.76516],[-9.32901,38.76524],[-9.32863,38.76506],[-9.32664,38.76592],[-9.32632,38.76628],[-9.32687,38.76624],[-9.32766,38.76581],[-9.32897,38.76544],[-9.32984,38.76601],[-9.33039,38.7658],[-9.33016,38.76593],[-9.3305,38.766],[-9.33059,38.76727],[-9.33049,38.76773],[-9.33015,38.76804],[-9.3298,38.76807],[-9.32856,38.76875],[-9.32792,38.76928],[-9.32761,38.76989],[-9.32685,38.77078],[-9.32685,38.77153],[-9.32618,38.77315],[-9.32686,38.77347],[-9.32644,38.77339],[-9.32613,38.77386],[-9.32561,38.77558],[-9.32495,38.77637],[-9.32488,38.77673],[-9.32487,38.77722],[-9.32502,38.77746],[-9.32576,38.77751],[-9.32615,38.7778],[-9.32643,38.77763],[-9.32657,38.77789],[-9.32638,38.77808]]],[[[-9.32698,38.78093],[-9.32719,38.78184],[-9.32709,38.78216],[-9.32673,38.78248],[-9.32667,38.78286],[-9.32696,38.78369],[-9.32748,38.78443],[-9.3276,38.78554],[-9.32773,38.78569],[-9.32795,38.78549],[-9.32793,38.78513],[-9.32762,38.78374],[-9.32725,38.78338],[-9.32753,38.78093],[-9.32733,38.7807],[-9.32706,38.77969],[-9.32762,38.77851],[-9.32665,38.7783],[-9.32674,38.7787],[-9.32643,38.77877],[-9.32634,38.77961],[-9.32668,38.78007],[-9.32698,38.78093]]],[[[-9.34548,38.79286],[-9.34615,38.79312],[-9.34638,38.79295],[-9.34645,38.79255],[-9.34554,38.79242],[-9.34481,38.79286],[-9.3443,38.79293],[-9.34548,38.79286]]],[[[-9.34655,38.79261],[-9.34655,38.79305],[-9.34719,38.79334],[-9.34737,38.79317],[-9.34715,38.79291],[-9.34788,38.7924],[-9.34834,38.79241],[-9.34995,38.79106],[-9.34972,38.79061],[-9.35165,38.78992],[-9.35153,38.78926],[-9.35185,38.78911],[-9.35185,38.78892],[-9.35139,38.78904],[-9.35146,38.78961],[-9.35097,38.78988],[-9.35081,38.79017],[-9.34967,38.79056],[-9.34928,38.79045],[-9.34851,38.79103],[-9.34827,38.79107],[-9.34815,38.79084],[-9.34792,38.79118],[-9.34757,38.79105],[-9.3465,38.79214],[-9.34655,38.79261]]],[[[-9.33644,38.79734],[-9.33638,38.79744],[-9.33672,38.79757],[-9.33687,38.79733],[-9.33758,38.79739],[-9.3372,38.79733],[-9.33725,38.7971],[-9.33765,38.79716],[-9.33811,38.79679],[-9.33799,38.79666],[-9.3378,38.79665],[-9.33712,38.79714],[-9.33702,38.79706],[-9.33767,38.79658],[-9.33773,38.79598],[-9.3382,38.79601],[-9.33844,38.79548],[-9.33856,38.79552],[-9.33828,38.79612],[-9.33787,38.79609],[-9.33782,38.79654],[-9.33828,38.79679],[-9.33807,38.79697],[-9.33862,38.79709],[-9.3386,38.7969],[-9.33925,38.79658],[-9.33897,38.79618],[-9.33859,38.79625],[-9.33902,38.79602],[-9.33866,38.79559],[-9.33896,38.79555],[-9.33934,38.79623],[-9.33913,38.79562],[-9.33937,38.79557],[-9.33913,38.79548],[-9.3393,38.79528],[-9.33905,38.79545],[-9.33877,38.79528],[-9.33911,38.79503],[-9.33901,38.79475],[-9.33926,38.79471],[-9.33935,38.79453],[-9.33913,38.79429],[-9.33942,38.79431],[-9.33949,38.79379],[-9.33977,38.79355],[-9.34046,38.79366],[-9.34118,38.7934],[-9.34173,38.79422],[-9.34299,38.79363],[-9.34282,38.79317],[-9.34292,38.79307],[-9.34421,38.79288],[-9.342,38.79308],[-9.34192,38.79299],[-9.34243,38.79279],[-9.3422,38.79258],[-9.34174,38.79237],[-9.34178,38.79251],[-9.34158,38.79264],[-9.34068,38.79209],[-9.34066,38.79189],[-9.34033,38.79171],[-9.34004,38.79179],[-9.34008,38.79193],[-9.33982,38.7923],[-9.33908,38.79262],[-9.33856,38.7933],[-9.3385,38.79366],[-9.33874,38.79397],[-9.33829,38.79518],[-9.33793,38.79517],[-9.33757,38.79555],[-9.33747,38.79622],[-9.33729,38.79642],[-9.33716,38.79636],[-9.33731,38.79617],[-9.3373,38.79575],[-9.33694,38.79592],[-9.33684,38.79633],[-9.33633,38.79617],[-9.33578,38.79594],[-9.33563,38.79549],[-9.33413,38.79447],[-9.33379,38.79398],[-9.3331,38.79342],[-9.33314,38.79311],[-9.33267,38.79247],[-9.33222,38.79232],[-9.33191,38.79164],[-9.33173,38.79162],[-9.33111,38.7909],[-9.33139,38.79081],[-9.33118,38.79048],[-9.33082,38.79041],[-9.33084,38.7906],[-9.33065,38.79068],[-9.33058,38.79051],[-9.33074,38.79048],[-9.33041,38.79001],[-9.3304,38.78951],[-9.32996,38.78873],[-9.32996,38.78705],[-9.32973,38.787],[-9.32947,38.78774],[-9.3292,38.78767],[-9.32845,38.78636],[-9.32818,38.78633],[-9.32752,38.78561],[-9.32731,38.78569],[-9.32725,38.78614],[-9.32822,38.78672],[-9.32794,38.78719],[-9.32811,38.78731],[-9.32803,38.78772],[-9.32732,38.78859],[-9.3275,38.78896],[-9.32762,38.78998],[-9.32788,38.79003],[-9.32795,38.78986],[-9.32829,38.78981],[-9.32871,38.78986],[-9.32878,38.78922],[-9.32913,38.78848],[-9.3294,38.78838],[-9.32966,38.78956],[-9.33029,38.79082],[-9.33012,38.79102],[-9.33022,38.79112],[-9.32984,38.79136],[-9.32989,38.7915],[-9.33012,38.79158],[-9.33006,38.79168],[-9.33061,38.79136],[-9.3309,38.79197],[-9.33104,38.79194],[-9.33087,38.79159],[-9.331,38.79154],[-9.3313,38.79207],[-9.33143,38.79204],[-9.33158,38.7925],[-9.33175,38.79243],[-9.33206,38.7928],[-9.33186,38.79293],[-9.33211,38.79286],[-9.33236,38.79317],[-9.33209,38.79319],[-9.33263,38.79353],[-9.33276,38.79381],[-9.33262,38.79411],[-9.33297,38.79449],[-9.33287,38.79473],[-9.33396,38.79561],[-9.33405,38.79566],[-9.33304,38.79469],[-9.33316,38.79461],[-9.33407,38.79552],[-9.33437,38.79538],[-9.33386,38.795],[-9.33398,38.79493],[-9.33476,38.79559],[-9.33506,38.79553],[-9.33515,38.79562],[-9.335,38.79575],[-9.33538,38.79586],[-9.33506,38.79611],[-9.33524,38.79631],[-9.33577,38.79627],[-9.33582,38.79607],[-9.33656,38.79638],[-9.33652,38.79682],[-9.33629,38.79714],[-9.33629,38.79741],[-9.33644,38.79734]],[[-9.3367,38.79685],[-9.33653,38.79682],[-9.33661,38.79639],[-9.33684,38.79647],[-9.3367,38.79685]]]]},"properties":{"ZAC":1,"ZA":1,"OBJECTID":47,"area_ha":87.37003035,"Shape.STArea()":873700.30212382,"Shape.STLength()":31253.76483350271,"Descricao":"Zonas ameaçadas pelas cheias"}},{"type":"Feature","id":48,"geometry":{"type":"MultiPolygon","coordinates":[[[[-9.39104,38.76403],[-9.39101,38.76419],[-9.39378,38.76385],[-9.39554,38.76318],[-9.39632,38.76254],[-9.39657,38.76255],[-9.39686,38.76284],[-9.3974,38.76242],[-9.39749,38.76205],[-9.39601,38.7623],[-9.39526,38.76295],[-9.39309,38.76326],[-9.39104,38.76403]]],[[[-9.39693,38.76715],[-9.39705,38.76716],[-9.39687,38.76659],[-9.39714,38.7662],[-9.39775,38.76433],[-9.39835,38.76349],[-9.39872,38.7633],[-9.39942,38.76229],[-9.39976,38.76207],[-9.39939,38.76142],[-9.40029,38.76099],[-9.39875,38.7606],[-9.39823,38.76009],[-9.3977,38.75874],[-9.39727,38.75821],[-9.39812,38.75639],[-9.39855,38.75466],[-9.39882,38.75424],[-9.39875,38.75344],[-9.39834,38.75361],[-9.3984,38.75385],[-9.39708,38.75713],[-9.39704,38.75769],[-9.39663,38.75792],[-9.3965,38.75826],[-9.39746,38.75889],[-9.39772,38.75996],[-9.3987,38.76139],[-9.39873,38.76172],[-9.39854,38.76205],[-9.39868,38.76215],[-9.39817,38.76285],[-9.39846,38.76317],[-9.39762,38.76372],[-9.397,38.76611],[-9.39656,38.76646],[-9.39676,38.76693],[-9.3966,38.76709],[-9.39693,38.76715]]]]},"properties":{"ZAC":1,"ZA":1,"OBJECTID":48,"area_ha":10.71922929,"Shape.STArea()":107192.29413547,"Shape.STLength()":4981.443939245963,"Descricao":"Zonas ameaçadas pelas cheias"}}]}