{"type":"FeatureCollection","features":[{"type":"Feature","id":1,"geometry":{"type":"Polygon","coordinates":[[[-9.46914,38.82619],[-9.4692,38.82644],[-9.46978,38.82639],[-9.46963,38.82581],[-9.46891,38.82488],[-9.47051,38.82388],[-9.46944,38.82339],[-9.46927,38.82363],[-9.46685,38.82295],[-9.46726,38.82362],[-9.46749,38.82373],[-9.46744,38.82391],[-9.46832,38.82459],[-9.46837,38.82506],[-9.46914,38.82619]]]},"properties":{"FTPC":1,"OBJECTID":1,"area_ha":3.99507119,"Shape.STArea()":39950.711884525,"Shape.STLength()":1289.6271237996782,"Descricao":"Faixa terrestre de proteção costeira"}},{"type":"Feature","id":2,"geometry":{"type":"Polygon","coordinates":[[[-9.48503,38.80239],[-9.48515,38.80234],[-9.4848,38.80185],[-9.48443,38.80175],[-9.48438,38.80236],[-9.48442,38.8022],[-9.48459,38.80239],[-9.48503,38.80239]]]},"properties":{"FTPC":1,"OBJECTID":2,"area_ha":0.27661004,"Shape.STArea()":2766.100431755,"Shape.STLength()":270.3372537684775,"Descricao":"Faixa terrestre de proteção costeira"}},{"type":"Feature","id":3,"geometry":{"type":"Polygon","coordinates":[[[-9.44891,38.86407],[-9.44911,38.86443],[-9.44906,38.86402],[-9.4489,38.86405],[-9.44869,38.86365],[-9.44812,38.86344],[-9.44852,38.86351],[-9.44863,38.86318],[-9.44906,38.86312],[-9.44586,38.8633],[-9.44617,38.86348],[-9.44826,38.86371],[-9.44891,38.86407]]]},"properties":{"FTPC":1,"OBJECTID":3,"area_ha":0.95427126,"Shape.STArea()":9542.712647665,"Shape.STLength()":913.8790790548416,"Descricao":"Faixa terrestre de proteção costeira"}},{"type":"Feature","id":4,"geometry":{"type":"MultiPolygon","coordinates":[[[[-9.47628,38.81504],[-9.47561,38.81607],[-9.47595,38.81612],[-9.47832,38.81228],[-9.47944,38.81081],[-9.47931,38.81076],[-9.47921,38.81099],[-9.47887,38.81117],[-9.47852,38.8119],[-9.47815,38.81173],[-9.4779,38.81194],[-9.47736,38.81285],[-9.47767,38.81296],[-9.47707,38.81391],[-9.47642,38.81461],[-9.47628,38.81504]]],[[[-9.41927,38.93085],[-9.41856,38.93142],[-9.4189,38.93178],[-9.41968,38.93097],[-9.41942,38.93078],[-9.41927,38.93085]]]]},"properties":{"FTPC":1,"OBJECTID":4,"area_ha":2.32642879,"Shape.STArea()":23264.287940805,"Shape.STLength()":1785.2416915280096,"Descricao":"Faixa terrestre de proteção costeira"}}]}