{"type":"FeatureCollection","features":[{"type":"Feature","id":1,"geometry":{"type":"MultiPolygon","coordinates":[[[[-9.48462,38.80241],[-9.48515,38.80234],[-9.48474,38.80186],[-9.48447,38.80181],[-9.48436,38.80228],[-9.48462,38.80241]]],[[[-9.47572,38.8165],[-9.47567,38.81721],[-9.47591,38.81772],[-9.47619,38.81736],[-9.47631,38.81665],[-9.47626,38.81637],[-9.47585,38.81638],[-9.47598,38.81606],[-9.47833,38.81226],[-9.47944,38.81081],[-9.47931,38.81076],[-9.47887,38.81117],[-9.47833,38.81204],[-9.47792,38.81231],[-9.47747,38.81333],[-9.47642,38.81461],[-9.47614,38.81532],[-9.47566,38.81588],[-9.47561,38.81607],[-9.47585,38.81611],[-9.47572,38.8165]]],[[[-9.46962,38.82611],[-9.46976,38.8264],[-9.46963,38.82581],[-9.46891,38.82488],[-9.47051,38.82388],[-9.46986,38.82361],[-9.46962,38.82376],[-9.46685,38.82295],[-9.46726,38.82362],[-9.46749,38.82373],[-9.46744,38.82391],[-9.4686,38.82483],[-9.46911,38.82577],[-9.46962,38.82611]]],[[[-9.46217,38.84033],[-9.46215,38.84052],[-9.4625,38.84083],[-9.46235,38.84032],[-9.46217,38.84033]]],[[[-9.4489,38.86405],[-9.44904,38.86441],[-9.44906,38.86402],[-9.4489,38.86405],[-9.44869,38.86365],[-9.44812,38.86344],[-9.44851,38.86351],[-9.44863,38.86318],[-9.44905,38.86312],[-9.44586,38.8633],[-9.44617,38.86348],[-9.44824,38.8637],[-9.4489,38.86405]]],[[[-9.43458,38.89568],[-9.4346,38.89593],[-9.43478,38.89553],[-9.43509,38.89574],[-9.43491,38.89535],[-9.435,38.89471],[-9.43477,38.89426],[-9.43482,38.89463],[-9.43458,38.89568]]],[[[-9.41927,38.93085],[-9.41856,38.93142],[-9.4189,38.93178],[-9.41968,38.93097],[-9.41955,38.93071],[-9.41927,38.93085]]]]},"properties":{"ZAM":1,"OBJECTID":1,"area_ha":7.65146015,"Shape.STArea()":76514.601424885,"Shape.STLength()":5136.327555163865,"Descricao":"Zonas ameaçadas pelo mar"}}]}