{"type":"FeatureCollection","features":[{"type":"Feature","id":1,"geometry":{"type":"MultiPolygon","coordinates":[[[[-9.34473,38.77927],[-9.34429,38.77964],[-9.34405,38.78013],[-9.34407,38.78065],[-9.34435,38.78112],[-9.34483,38.78147],[-9.34546,38.78165],[-9.34612,38.78162],[-9.34672,38.7814],[-9.34527,38.78097],[-9.34547,38.78072],[-9.34529,38.77991],[-9.3447,38.77984],[-9.34473,38.77927]]],[[[-9.34616,38.77855],[-9.34551,38.77872],[-9.345,38.77911],[-9.34678,38.77933],[-9.34758,38.77951],[-9.34769,38.7797],[-9.34761,38.77929],[-9.3473,38.77891],[-9.34681,38.77865],[-9.34616,38.77855]]],[[[-9.34728,38.78082],[-9.34749,38.78031],[-9.34744,38.7803],[-9.34728,38.78082]]]]},"properties":{"OBJECTID":1,"ZP":1,"SHAPE.STArea()":39579.291860255,"SHAPE.STLength()":1554.2097711902156,"Regulamento":"https://cloud.cm-sintra.pt/s/H79QNwTyezCXLJd","Pag_Regulamento":"27","Guiao":"https://cloud.cm-sintra.pt/s/DqxzTELFktdZGKZ","Pag_Guiao":"","Relatorio":"https://cloud.cm-sintra.pt/s/DpQF9g5C5LiACtM","Pag_relatorio":"89"}},{"type":"Feature","id":2,"geometry":{"type":"Polygon","coordinates":[[[-9.34138,38.78175],[-9.34241,38.78296],[-9.34396,38.78377],[-9.34571,38.78408],[-9.34755,38.78386],[-9.34915,38.7831],[-9.35045,38.78175],[-9.35107,38.7803],[-9.35103,38.77884],[-9.35069,38.77807],[-9.35015,38.77737],[-9.34851,38.77629],[-9.34663,38.77586],[-9.34458,38.77608],[-9.34299,38.77683],[-9.34176,38.77812],[-9.34123,38.7792],[-9.34103,38.77999],[-9.34109,38.78096],[-9.34138,38.78175]],[[-9.34728,38.78082],[-9.3489,38.78128],[-9.34882,38.78157],[-9.34895,38.78159],[-9.34883,38.7817],[-9.34797,38.78164],[-9.34672,38.7814],[-9.34595,38.78165],[-9.34512,38.78158],[-9.34425,38.781],[-9.34405,38.78012],[-9.34475,38.7791],[-9.345,38.77911],[-9.34582,38.7786],[-9.34668,38.77861],[-9.34745,38.77905],[-9.34784,38.77988],[-9.34728,38.78082]]]},"properties":{"OBJECTID":2,"ZP":2,"SHAPE.STArea()":535119.05010217,"SHAPE.STLength()":4206.015659004683,"Regulamento":"https://cloud.cm-sintra.pt/s/H79QNwTyezCXLJd","Pag_Regulamento":"27","Guiao":"https://cloud.cm-sintra.pt/s/DqxzTELFktdZGKZ","Pag_Guiao":"","Relatorio":"https://cloud.cm-sintra.pt/s/DpQF9g5C5LiACtM","Pag_relatorio":"89"}}]}