{"type":"FeatureCollection","features":[{"type":"Feature","id":1,"geometry":{"type":"Polygon","coordinates":[[[-9.41935,38.93128],[-9.41924,38.93151],[-9.41882,38.93168],[-9.4197,38.93238],[-9.42048,38.93264],[-9.43674,38.93246],[-9.43783,38.93009],[-9.43908,38.92233],[-9.4411,38.91878],[-9.44135,38.91771],[-9.42956,38.91412],[-9.42779,38.91492],[-9.42673,38.91565],[-9.42631,38.91771],[-9.4257,38.91833],[-9.42556,38.91868],[-9.42529,38.92028],[-9.42387,38.92196],[-9.42372,38.92381],[-9.42337,38.92527],[-9.4225,38.92686],[-9.42174,38.92763],[-9.42105,38.92992],[-9.4206,38.93077],[-9.42013,38.93115],[-9.41986,38.93126],[-9.41966,38.93104],[-9.41933,38.93112],[-9.41935,38.93128]]]},"properties":{"Nome":"Praia de S.Julião e Vigia","Praias":1,"OBJECTID":1,"Shape.STArea()":2560466.52060684,"Shape.STLength()":6751.630717829932}},{"type":"Feature","id":2,"geometry":{"type":"Polygon","coordinates":[[[-9.49325,38.77484],[-9.49311,38.77554],[-9.49354,38.77606],[-9.4941,38.77625],[-9.49995,38.77343],[-9.4997,38.77324],[-9.49927,38.77198],[-9.49325,38.77484]]]},"properties":{"Nome":"Praia da Assentiz","Praias":1,"OBJECTID":2,"Shape.STArea()":106581.311637175,"Shape.STLength()":1590.4260835954162}},{"type":"Feature","id":3,"geometry":{"type":"Polygon","coordinates":[[[-9.4903,38.7957],[-9.49066,38.79603],[-9.49051,38.79622],[-9.49724,38.79892],[-9.49722,38.79785],[-9.48959,38.79497],[-9.48945,38.79553],[-9.49,38.7958],[-9.4903,38.7957]]]},"properties":{"Nome":"Praia da Funcheira","Praias":1,"OBJECTID":3,"Shape.STArea()":72131.552750145,"Shape.STLength()":1762.4170668992904}},{"type":"Feature","id":4,"geometry":{"type":"Polygon","coordinates":[[[-9.46975,38.8262],[-9.46981,38.82658],[-9.4798,38.83095],[-9.48081,38.82902],[-9.47164,38.82507],[-9.47014,38.82403],[-9.47008,38.82432],[-9.4697,38.82437],[-9.46891,38.82488],[-9.46963,38.82581],[-9.46975,38.8262]]]},"properties":{"Nome":"Praia das Maçãs","Praias":1,"OBJECTID":4,"Shape.STArea()":250561.471876325,"Shape.STLength()":2708.9507695116254}},{"type":"Feature","id":5,"geometry":{"type":"Polygon","coordinates":[[[-9.45039,38.86506],[-9.45081,38.86519],[-9.45082,38.86543],[-9.45827,38.8686],[-9.45859,38.86799],[-9.46046,38.86579],[-9.46269,38.864],[-9.46369,38.86182],[-9.46382,38.85937],[-9.46582,38.85503],[-9.46681,38.8523],[-9.46833,38.85011],[-9.46886,38.849],[-9.45979,38.84482],[-9.45889,38.84644],[-9.45832,38.84683],[-9.45754,38.84776],[-9.45707,38.84885],[-9.4566,38.84911],[-9.45635,38.85026],[-9.4558,38.85063],[-9.45522,38.85137],[-9.455,38.85244],[-9.4539,38.85483],[-9.45202,38.85776],[-9.45195,38.85807],[-9.45122,38.85855],[-9.45092,38.85924],[-9.45057,38.85953],[-9.4502,38.86092],[-9.44967,38.86172],[-9.44904,38.86317],[-9.44863,38.86318],[-9.44852,38.86351],[-9.44812,38.86344],[-9.44869,38.86365],[-9.4489,38.86405],[-9.44906,38.86402],[-9.44913,38.8645],[-9.44944,38.86484],[-9.45039,38.86506]]]},"properties":{"Nome":"Praia de Magoito e da Aguda","Praias":1,"OBJECTID":5,"Shape.STArea()":2396246.619774715,"Shape.STLength()":6889.409461893408}},{"type":"Feature","id":6,"geometry":{"type":"Polygon","coordinates":[[[-9.43475,38.89555],[-9.4345,38.89689],[-9.43504,38.89823],[-9.44686,38.90194],[-9.44695,38.90127],[-9.43602,38.89788],[-9.43544,38.89747],[-9.43517,38.89689],[-9.43504,38.89575],[-9.43475,38.89555]]]},"properties":{"Nome":"Praia da Samarra","Praias":1,"OBJECTID":6,"Shape.STArea()":89467.229875695,"Shape.STLength()":2825.146597396328}},{"type":"Feature","id":7,"geometry":{"type":"Polygon","coordinates":[[[-9.46232,38.84037],[-9.46243,38.84092],[-9.47142,38.84528],[-9.47184,38.84369],[-9.46338,38.83968],[-9.4622,38.84031],[-9.46232,38.84037]]]},"properties":{"Nome":"Azenhas do Mar","Praias":1,"OBJECTID":7,"Shape.STArea()":150679.42785049,"Shape.STLength()":2183.0797572337556}},{"type":"Feature","id":8,"geometry":{"type":"Polygon","coordinates":[[[-9.47631,38.81641],[-9.47615,38.81744],[-9.47577,38.81791],[-9.47463,38.81877],[-9.47318,38.82045],[-9.47284,38.82174],[-9.47289,38.82225],[-9.48262,38.82663],[-9.48279,38.82427],[-9.48362,38.82249],[-9.48584,38.82056],[-9.48666,38.81795],[-9.48888,38.81615],[-9.48919,38.81411],[-9.4904,38.8126],[-9.4817,38.8091],[-9.48134,38.80969],[-9.48075,38.80976],[-9.48068,38.80991],[-9.48033,38.80985],[-9.47931,38.81076],[-9.47944,38.81081],[-9.47933,38.81105],[-9.47832,38.81228],[-9.47585,38.81638],[-9.47631,38.81641]]]},"properties":{"Nome":"Praia Pequena e Grande","Praias":1,"OBJECTID":8,"Shape.STArea()":1565546.33177515,"Shape.STLength()":5435.334399300657}},{"type":"Feature","id":9,"geometry":{"type":"Polygon","coordinates":[[[-9.48453,38.8034],[-9.48415,38.80457],[-9.48433,38.80493],[-9.48431,38.80542],[-9.48395,38.80603],[-9.48353,38.80638],[-9.48388,38.80674],[-9.48347,38.80692],[-9.48357,38.80706],[-9.49162,38.8103],[-9.49205,38.80919],[-9.49427,38.80726],[-9.4944,38.80481],[-9.49471,38.8045],[-9.48803,38.8018],[-9.4876,38.80218],[-9.48719,38.80199],[-9.48696,38.80211],[-9.48684,38.80195],[-9.48692,38.80135],[-9.48672,38.80127],[-9.48634,38.80179],[-9.48645,38.80197],[-9.48618,38.80278],[-9.48608,38.80267],[-9.48599,38.80288],[-9.48555,38.80279],[-9.48539,38.80238],[-9.48462,38.80241],[-9.48439,38.80221],[-9.48467,38.80315],[-9.48466,38.80339],[-9.48453,38.8034]]]},"properties":{"Nome":"Praia da Adraga e do Cavalo","Praias":1,"OBJECTID":9,"Shape.STArea()":583663.79669458,"Shape.STLength()":3498.347495435045}},{"type":"Feature","id":10,"geometry":{"type":"Polygon","coordinates":[[[-9.49198,38.79153],[-9.49222,38.79191],[-9.49959,38.79482],[-9.49952,38.79117],[-9.49984,38.78991],[-9.49496,38.78798],[-9.49477,38.78824],[-9.49423,38.78846],[-9.49442,38.78866],[-9.49438,38.78884],[-9.49396,38.78879],[-9.49352,38.78922],[-9.49361,38.78943],[-9.49338,38.78963],[-9.4925,38.78978],[-9.49222,38.78962],[-9.4923,38.78984],[-9.49199,38.79037],[-9.49205,38.7908],[-9.49162,38.79083],[-9.49212,38.79101],[-9.49218,38.7915],[-9.49198,38.79153]]]},"properties":{"Nome":"Praia da Ursa","Praias":1,"OBJECTID":10,"Shape.STArea()":314425.87554299,"Shape.STLength()":2528.3882354532598}},{"type":"Feature","id":11,"geometry":{"type":"Polygon","coordinates":[[[-9.44632,38.87199],[-9.44595,38.87228],[-9.44498,38.87362],[-9.44493,38.87388],[-9.4441,38.87435],[-9.44411,38.87523],[-9.45464,38.88012],[-9.45459,38.877],[-9.45507,38.87581],[-9.44645,38.87193],[-9.44632,38.87199]]]},"properties":{"Nome":"Praia do Giribeto","Praias":1,"OBJECTID":11,"Shape.STArea()":409864.043342045,"Shape.STLength()":2866.571258572782}},{"type":"Feature","id":12,"geometry":{"type":"Polygon","coordinates":[[[-9.49596,38.78534],[-9.49558,38.78574],[-9.49548,38.78619],[-9.49559,38.78632],[-9.49542,38.78669],[-9.50062,38.78873],[-9.50188,38.78763],[-9.49596,38.78534]]]},"properties":{"Nome":"Praia da Aroeira","Praias":1,"OBJECTID":12,"Shape.STArea()":86740.60612569,"Shape.STLength()":1426.0580884588073}}]}